{"type": "FeatureCollection", "features": [{"type": "Feature", "geometry": {"type": "Polygon", "coordinates": [[[4.08333333333333, 37.6666666666667], [3.66666666666667, 37.75], [3.0, 37.9166666666667], [2.5, 38.25], [5.0, 39.0], [5.08333333333333, 39.4166666666667], [4.91666666666667, 39.8333333333333], [4.83333333333333, 39.8333333333333], [5.16666666666667, 40.25], [5.0, 40.6666666666667], [5.16666666666667, 40.8333333333333], [5.5, 41.3333333333333], [5.33333333333333, 41.8333333333333], [8.83333333333333, 41.8333333333333], [9.0, 40.5], [9.0, 39.0], [6.33333333333333, 39.0], [4.08333333333333, 37.6666666666667]]]}, "properties": {"Region": "Lusitania"}}, {"type": "Feature", "geometry": {"type": "Polygon", "coordinates": [[[4.08333333333333, 37.6666666666667], [4.08333333333333, 37.6666666666667], [6.33333333333333, 39.0], [9.0, 39.0], [12.073744461538334, 37.28623690872544], [11.5, 36.8333333333333], [11.3333333333333, 37.0833333333333], [10.75, 37.1666666666667], [10.8333333333333, 37.0833333333333], [10.25, 37.25], [9.0, 37.75], [9.25, 37.1666666666667], [8.83333333333333, 37.1666666666667], [8.5, 37.0], [8.0, 36.9166666666667], [7.66666666666667, 36.6666666666667], [7.5, 36.1666666666667], [7.25, 36.5], [6.83333333333333, 36.0833333333333], [6.5, 36.1666666666667], [6.25, 36.0833333333333], [5.75, 36.0833333333333], [6.0, 36.3333333333333], [6.0, 36.75], [5.33333333333333, 37.0], [5.08333333333333, 37.1666666666667], [4.66666666666667, 37.3333333333333], [4.33333333333333, 37.5], [4.08333333333333, 37.6666666666667]]]}, "properties": {"Region": "Baetica"}}, {"type": "Feature", "geometry": {"type": "Polygon", "coordinates": [[[5.33333333333333, 41.8333333333333], [5.5, 42.25], [5.5, 42.0], [5.66666666666667, 42.75], [5.5, 43.25], [5.33333333333333, 43.6666666666667], [5.5, 44.0], [5.66666666666667, 44.3333333333333], [5.66666666666667, 45.0], [5.25, 45.1666666666667], [5.66666666666667, 45.1666666666667], [6.25, 45.5], [6.5, 45.5], [6.75, 45.0], [8.25, 45.8333333333333], [9.0, 45.75], [10.3333333333333, 45.6666666666667], [11.6666666666667, 45.75], [11.75, 45.4166666666667], [12.0, 45.1666666666667], [13.0, 45.5], [13.1666666666667, 44.6666666666667], [13.5, 44.25], [13.8333333333333, 44.0833333333333], [14.3333333333333, 45.0], [15.1666666666667, 45.0833333333333], [15.0, 45.8333333333333], [17.0, 43.0], [19.0, 43.1666666666667], [20.3333333333333, 42.3333333333333], [19.0, 42.5], [18.5, 42.1666666666667], [18.25, 42.0], [18.0, 41.75], [18.5, 41.3333333333333], [17.8333333333333, 41.3333333333333], [17.5, 41.25], [17.25, 41.0], [16.8333333333333, 40.75], [16.3333333333333, 40.6666666666667], [16.0, 40.5], [15.5, 40.0], [15.8333333333333, 39.3333333333333], [15.0833333333333, 39.5], [15.0, 39.0], [14.5, 38.9166666666667], [14.0, 38.8333333333333], [13.5, 38.75], [13.0, 38.75], [12.5, 38.5833333333333], [12.5, 38.1666666666667], [12.25, 37.9166666666667], [12.1666666666667, 37.5], [12.0, 37.4166666666667], [12.073744461538334, 37.28623690872544], [12.073744461538334, 37.28623690872544], [9.0, 39.0], [9.0, 40.5], [8.83333333333333, 41.8333333333333], [5.33333333333333, 41.8333333333333]]]}, "properties": {"Region": "Tarraconensis"}}, {"type": "Feature", "geometry": {"type": "Polygon", "coordinates": [[[15.0, 45.8333333333333], [16.75, 44.75], [17.0, 45.3333333333333], [16.5, 46.0], [17.5, 46.5], [16.5, 46.75], [17.25, 47.75], [17.0, 48.0], [17.5, 48.25], [17.6666666666667, 48.5], [20.0, 48.5], [20.0, 44.5], [19.0, 43.1666666666667], [19.0, 43.1666666666667], [19.0, 43.1666666666667], [17.0, 43.0], [15.0, 45.8333333333333]]]}, "properties": {"Region": "Aquitania"}}, {"type": "Feature", "geometry": {"type": "Polygon", "coordinates": [[[17.6666666666667, 48.5], [17.6666666666667, 48.75], [16.5, 49.6666666666667], [15.25, 49.75], [16.5, 50.0], [17.3333333333333, 50.3333333333333], [18.0, 50.5], [18.8333333333333, 50.8333333333333], [18.75, 51.0], [19.5, 51.1666666666667], [20.0, 51.1666666666667], [20.0, 51.1666666666667], [22.0, 49.3333333333333], [24.0, 47.3333333333333], [25.0, 45.5], [20.3333333333333, 44.5], [20.0, 44.5], [20.0, 44.5], [20.0, 48.5], [17.6666666666667, 48.5]]]}, "properties": {"Region": "Lugdunensis"}}, {"type": "Feature", "geometry": {"type": "Polygon", "coordinates": [[[20.0, 51.1666666666667], [21.75, 52.3333333333333], [22.25, 53.5], [22.5, 53.5], [24.6666666666667, 53.5], [26.5, 53.3333333333333], [26.75, 53.3333333333333], [27.3333333333333, 54.0], [28.0, 50.0], [29.344189166125247, 45.98939205819239], [29.5, 45.25], [25.0, 45.5], [25.0, 45.5], [24.0, 47.3333333333333], [22.0, 49.3333333333333], [20.0, 51.1666666666667]]]}, "properties": {"Region": "Belgika"}}, {"type": "Feature", "geometry": {"type": "Polygon", "coordinates": [[[20.3333333333333, 42.3333333333333], [19.0, 43.1666666666667], [20.0, 44.5], [20.3333333333333, 44.5], [25.0, 45.5], [29.5, 45.25], [29.5, 45.25], [28.6666666666667, 44.6666666666667], [28.5, 44.5], [28.3333333333333, 44.3333333333333], [28.0, 44.0], [27.5, 43.0], [27.0, 43.0], [26.5, 42.8333333333333], [25.6666666666667, 42.75], [25.1666666666667, 42.75], [25.0, 42.6666666666667], [24.6666666666667, 42.8333333333333], [24.5, 43.0833333333333], [23.75, 43.0], [23.5, 43.0833333333333], [23.0, 42.8333333333333], [22.8333333333333, 42.6666666666667], [22.6666666666667, 42.6666666666667], [22.5, 42.5], [22.25, 42.8333333333333], [22.0, 42.8333333333333], [21.75, 42.75], [21.25, 42.75], [21.0, 42.6666666666667], [20.3333333333333, 42.3333333333333]]]}, "properties": {"Region": "Narbonnensis"}}, {"type": "Feature", "geometry": {"type": "Polygon", "coordinates": [[[27.3333333333333, 54.0], [27.5, 54.3333333333333], [28.0, 54.25], [29.0, 55.0], [31.0, 55.0], [31.0, 56.25], [32.0, 56.8333333333333], [35.0, 58.3333333333333], [35.6666666666667, 58.3333333333333], [44.0, 59.5], [39.3333333333333, 58.25], [37.0, 57.0], [35.0, 56.0], [45.0, 56.0], [44.0, 52.5], [43.5, 50.5], [42.5, 48.5], [42.5, 48.0], [42.0, 47.0], [41.0, 47.6666666666667], [39.3333333333333, 47.3333333333333], [37.5, 46.8333333333333], [36.0, 46.6666666666667], [34.0, 47.3333333333333], [32.0, 47.25], [29.99950070150935, 46.8237767423675], [29.33415947118763, 45.9788379880241], [29.5, 45.25], [29.5, 45.25], [29.344189166125247, 45.98939205819239], [28.0, 50.0], [27.3333333333333, 54.0]]]}, "properties": {"Region": "Germania"}}, {"type": "Feature", "geometry": {"type": "Polygon", "coordinates": [[[29.5, 45.25], [29.33415947118763, 45.9788379880241], [29.99950070150935, 46.8237767423675], [32.0, 47.25], [34.0, 47.3333333333333], [34.0, 47.3333333333333], [34.0, 45.25], [33.5, 45.1666666666667], [31.5, 45.5], [30.0, 45.3333333333333], [29.5, 45.25]]]}, "properties": {"Region": "Rhaetia"}}, {"type": "Feature", "geometry": {"type": "Polygon", "coordinates": [[[37.5, 46.8333333333333], [37.5, 45.5], [36.5, 45.3333333333333], [36.0, 45.4166666666667], [35.0, 45.3333333333333], [34.0, 45.25], [34.0, 45.25], [34.0, 47.3333333333333], [36.0, 46.6666666666667], [37.5, 46.8333333333333]]]}, "properties": {"Region": "Noricum"}}, {"type": "Feature", "geometry": {"type": "Polygon", "coordinates": [[[30.3333333333333, 63.25], [31.6666666666667, 63.0], [30.3333333333333, 62.6666666666667], [29.0, 63.0], [30.3333333333333, 63.25], [30.3333333333333, 63.25]]]}, "properties": {"Region": "Thule"}}, {"type": "Feature", "geometry": {"type": "Polygon", "coordinates": [[[44.5, 58.5], [46.0, 58.0], [45.0, 57.6666666666667], [43.0, 58.0], [44.5, 58.5], [44.5, 58.5]]]}, "properties": {"Region": "Scandia"}}, {"type": "Feature", "geometry": {"type": "Polygon", "coordinates": [[[36.5, 45.3333333333333], [37.5, 45.5], [37.5, 46.8333333333333], [39.3333333333333, 47.3333333333333], [41.0, 47.6666666666667], [41.0, 47.6666666666667], [41.5, 45.3333333333333], [36.5, 45.3333333333333]]]}, "properties": {"Region": "Pannonia S."}}, {"type": "Feature", "geometry": {"type": "Polygon", "coordinates": [[[42.5, 48.0], [44.3333333333333, 45.3333333333333], [44.3333333333333, 45.3333333333333], [44.3333333333333, 45.3333333333333], [45.0, 45.3333333333333], [45.5, 45.0], [45.0, 44.5], [41.5, 45.3333333333333], [41.5, 45.3333333333333], [41.0, 47.6666666666667], [42.0, 47.0], [42.5, 48.0]]]}, "properties": {"Region": "Pannonia I."}}, {"type": "Feature", "geometry": {"type": "Polygon", "coordinates": [[[36.5, 45.3333333333333], [41.5, 45.3333333333333], [45.0, 44.5], [45.0, 44.5], [47.0, 41.673594421221196], [45.0, 41.0], [45.0, 42.0], [44.75, 42.0], [44.6666666666667, 42.25], [44.6666666666667, 42.3333333333333], [44.5, 42.3333333333333], [44.0, 42.5], [44.0, 42.75], [43.5, 43.1666666666667], [43.0, 43.3333333333333], [42.6666666666667, 43.5], [42.3333333333333, 43.6666666666667], [42.0, 43.75], [41.5, 44.0], [41.1666666666667, 44.0], [40.75, 44.1666666666667], [40.3333333333333, 44.5], [39.3333333333333, 44.5], [39.0, 44.6666666666667], [38.5, 44.8333333333333], [38.0, 44.75], [37.6666666666667, 44.8333333333333], [36.5, 44.8333333333333], [36.5, 45.3333333333333]]]}, "properties": {"Region": "Illyricum"}}, {"type": "Feature", "geometry": {"type": "Polygon", "coordinates": [[[27.5, 43.0], [28.0, 44.0], [28.3333333333333, 44.3333333333333], [28.5, 44.5], [28.6666666666667, 44.6666666666667], [29.5, 45.25], [30.0, 45.3333333333333], [31.5, 45.5], [33.5, 45.1666666666667], [34.0, 45.25], [35.0, 45.3333333333333], [36.0, 45.4166666666667], [36.5, 45.3333333333333], [36.5, 44.8333333333333], [36.5, 44.8333333333333], [36.25, 44.9166666666667], [36.0, 44.6666666666667], [35.5, 44.9166666666667], [34.5, 44.9166666666667], [34.0, 44.8333333333333], [33.0, 44.6666666666667], [34.0, 44.1666666666667], [34.75, 44.0], [34.9166666666667, 43.9166666666667], [35.0, 43.8333333333333], [35.3333333333333, 43.75], [35.6666666666667, 43.75], [36.0, 43.6666666666667], [36.5, 43.6666666666667], [36.8333333333333, 43.3333333333333], [37.6666666666667, 43.3333333333333], [38.0, 43.1666666666667], [38.5, 43.0], [39.3333333333333, 42.75], [40.5, 42.5], [40.75, 42.25], [41.3333333333333, 42.0], [41.5, 41.75], [41.6666666666667, 41.6666666666667], [42.0, 41.5], [42.1666666666667, 41.25], [42.3333333333333, 41.0], [42.3333333333333, 40.75], [42.3333333333333, 40.75], [42.3333333333333, 40.5], [42.3333333333333, 40.3333333333333], [42.5, 40.25], [42.3333333333333, 40.0833333333333], [42.5, 39.8333333333333], [42.5, 39.6666666666667], [42.6666666666667, 39.25], [43.0, 39.5833333333333], [42.3333333333333, 38.75], [42.3333333333333, 38.75], [42.3333333333333, 38.75], [42.1666666666667, 40.0], [41.9166666666667, 39.9166666666667], [41.9166666666667, 39.5], [41.5, 39.1666666666667], [41.5, 38.75], [40.75, 38.8333333333333], [40.75, 38.75], [40.8333333333333, 38.4166666666667], [40.75, 38.4166666666667], [40.5, 38.0833333333333], [39.8333333333333, 38.0], [39.8333333333333, 38.25], [39.75, 38.3333333333333], [40.3333333333333, 38.75], [40.3333333333333, 38.8333333333333], [40.0, 39.1666666666667], [40.0, 39.5], [40.3333333333333, 39.75], [40.1666666666667, 40.0], [40.0833333333333, 40.25], [40.0, 40.5], [40.0, 40.6666666666667], [40.0833333333333, 40.9166666666667], [40.0, 40.9166666666667], [39.8333333333333, 41.0], [39.5, 41.0], [39.3333333333333, 41.1666666666667], [39.1666666666667, 41.1666666666667], [38.75, 41.0833333333333], [38.5, 41.3333333333333], [38.3333333333333, 41.25], [38.1666666666667, 41.25], [37.5, 41.25], [37.5, 41.3333333333333], [37.1666666666667, 41.3333333333333], [36.8333333333333, 41.3333333333333], [36.5, 41.5], [36.3333333333333, 41.5], [36.25, 41.5], [36.0, 41.5], [35.6666666666667, 41.6666666666667], [35.3333333333333, 41.75], [35.0, 41.9166666666667], [34.5, 42.0], [34.25, 42.0], [34.1666666666667, 42.5], [33.8333333333333, 42.3333333333333], [33.5, 42.5], [33.3333333333333, 42.6666666666667], [32.6666666666667, 42.75], [32.0, 42.6666666666667], [32.0, 42.75], [31.0, 43.0], [30.8333333333333, 42.75], [30.5, 42.9166666666667], [30.5, 42.8333333333333], [30.0, 42.8333333333333], [29.5, 42.75], [29.1666666666667, 42.75], [28.6666666666667, 42.6666666666667], [28.5, 42.5], [28.25, 42.75], [28.0, 43.4166666666667], [27.5, 43.0]]]}, "properties": {"Region": "Italia"}}, {"type": "Feature", "geometry": {"type": "Polygon", "coordinates": [[[30.6666666666667, 41.0], [30.6666666666667, 41.0], [31.0, 41.3333333333333], [31.25, 41.5], [31.5, 41.5], [31.3333333333333, 41.1666666666667], [31.3333333333333, 41.0], [31.5, 40.75], [31.3333333333333, 40.6666666666667], [31.5, 40.5833333333333], [31.5, 40.5], [31.3333333333333, 40.3333333333333], [31.5, 40.1666666666667], [31.5, 39.9166666666667], [31.3333333333333, 39.75], [31.5, 39.6666666666667], [31.3333333333333, 39.5], [31.3333333333333, 39.3333333333333], [31.0, 39.25], [30.75, 39.3333333333333], [30.5, 39.5], [30.3333333333333, 39.5833333333333], [30.25, 39.6666666666667], [30.25, 39.75], [30.1666666666667, 39.9166666666667], [30.25, 40.0], [30.1666666666667, 40.1666666666667], [30.0, 40.25], [30.0, 40.3333333333333], [30.1666666666667, 40.4166666666667], [30.1666666666667, 40.5], [30.0, 40.6666666666667], [30.25, 40.4166666666667], [30.0, 41.1666666666667], [30.5, 41.1666666666667], [30.6666666666667, 41.0]]]}, "properties": {"Region": "Corsica"}}, {"type": "Feature", "geometry": {"type": "Polygon", "coordinates": [[[29.8333333333333, 38.75], [30.25, 38.8333333333333], [30.6666666666667, 38.8333333333333], [31.3333333333333, 39.0], [31.3333333333333, 39.0833333333333], [31.5, 39.3333333333333], [31.59882028108727, 39.267453145941815], [31.75, 39.1666666666667], [31.75, 39.0], [31.6666666666667, 38.75], [31.6666666666667, 38.5], [31.75, 38.1666666666667], [32.0, 38.0], [31.8333333333333, 37.5], [32.0, 37.0], [31.9166666666667, 36.6666666666667], [32.1666666666667, 36.3333333333333], [32.5, 36.0], [32.5, 35.9166666666667], [32.0, 35.9166666666667], [32.0, 35.8333333333333], [31.75, 35.8333333333333], [31.5, 35.75], [31.25, 35.8333333333333], [30.5833333333333, 35.8333333333333], [30.6666666666667, 36.0], [30.6666666666667, 36.1666666666667], [30.5, 36.3333333333333], [30.5, 37.1666666666667], [30.3333333333333, 37.3333333333333], [30.3333333333333, 37.5], [30.25, 38.0], [30.0, 38.25], [30.1666666666667, 38.5], [30.0, 38.6666666666667], [29.8333333333333, 38.75]]]}, "properties": {"Region": "Sardo"}}, {"type": "Feature", "geometry": {"type": "Polygon", "coordinates": [[[39.3333333333333, 38.5833333333333], [39.5, 38.3333333333333], [39.5, 37.75], [39.5833333333333, 37.6666666666667], [39.4166666666667, 37.5], [39.5, 37.3333333333333], [39.5, 37.1666666666667], [39.3333333333333, 37.0], [39.6666666666667, 36.9166666666667], [39.8333333333333, 36.75], [39.75, 36.6666666666667], [39.75, 36.5], [40.0, 36.3333333333333], [39.8333333333333, 36.25], [39.6666666666667, 36.3333333333333], [39.5, 36.25], [39.25, 36.3333333333333], [39.0, 36.3333333333333], [38.8333333333333, 36.4166666666667], [38.0833333333333, 36.4166666666667], [37.8333333333333, 36.3333333333333], [37.3333333333333, 36.25], [37.1666666666667, 36.0833333333333], [37.0, 36.0], [36.8333333333333, 36.25], [36.9166666666667, 36.5], [37.0, 36.75], [37.0, 37.1666666666667], [37.25, 37.3333333333333], [37.3333333333333, 37.6666666666667], [37.5, 37.75], [37.6666666666667, 37.9166666666667], [37.6666666666667, 38.0], [37.75, 38.0833333333333], [37.8333333333333, 38.0833333333333], [38.0, 38.25], [38.3333333333333, 38.3333333333333], [38.5, 38.3333333333333], [38.8333333333333, 38.4166666666667], [39.0, 38.5], [39.1666666666667, 38.5], [39.3333333333333, 38.5833333333333], [39.3333333333333, 38.5833333333333]]]}, "properties": {"Region": "Sicily"}}, {"type": "Feature", "geometry": {"type": "Polygon", "coordinates": [[[45.0, 56.0], [50.0, 56.0], [53.0, 57.0], [56.0, 58.5], [58.5, 59.5], [62.0, 63.0], [64.00002145237481, 63.0], [64.00002145237481, 58.0], [72.5, 56.0], [67.00002145237481, 54.5], [66.3333333333333, 54.1666666666667], [65.0, 53.5], [64.5, 53.0], [63.5, 52.5], [63.0, 51.5], [62.5, 50.5], [63.0, 49.6666666666667], [62.5, 49.75], [61.0, 49.8333333333333], [60.5, 49.6666666666667], [60.3333333333333, 49.5], [60.0, 49.25], [60.3333333333333, 48.8333333333333], [60.5, 48.6666666666667], [60.5, 48.5], [60.3333333333333, 48.3333333333333], [59.6666666666667, 48.5], [59.3333333333333, 48.5], [59.5, 48.0], [59.75, 47.8333333333333], [59.75, 47.5], [57.8333333333333, 47.5], [59.0, 47.6666666666667], [58.5, 47.75], [58.0, 48.5], [57.5, 48.5], [46.0, 48.5], [42.5, 48.5], [42.5, 48.5], [43.5, 50.5], [44.0, 52.5], [45.0, 56.0]]]}, "properties": {"Region": "European Sarmatia"}}, {"type": "Feature", "geometry": {"type": "Polygon", "coordinates": [[[60.3333333333333, 48.3333333333333], [60.5, 48.5], [60.5, 48.5], [62.0, 48.5], [63.0, 48.75], [63.75, 48.25], [64.0, 48.1666666666667], [64.0, 47.9166666666667], [63.8333333333333, 47.6666666666667], [63.75, 47.5], [63.3333333333333, 47.3333333333333], [63.5, 47.1666666666667], [63.0, 47.0], [62.5, 47.0], [62.3333333333333, 46.8333333333333], [62.0, 46.6666666666667], [61.25, 47.1666666666667], [61.0, 47.0], [60.6666666666667, 47.0], [61.0, 47.25], [60.75, 47.3333333333333], [60.75, 47.6666666666667], [60.6666666666667, 48.25], [60.3333333333333, 48.3333333333333]]]}, "properties": {"Region": "Chersonesos"}}, {"type": "Feature", "geometry": {"type": "Polygon", "coordinates": [[[45.0, 44.5], [45.5, 45.0], [45.0, 45.3333333333333], [44.3333333333333, 45.3333333333333], [42.5, 48.0], [42.5, 48.5], [46.0, 48.5], [46.0, 48.5], [46.0, 44.25], [45.0, 44.5]]]}, "properties": {"Region": "Iazyges"}}, {"type": "Feature", "geometry": {"type": "Polygon", "coordinates": [[[53.0, 48.5], [53.6666666666667, 46.6666666666667], [54.3333333333333, 45.75], [51.0, 44.0], [50.25, 44.0], [49.5, 43.75], [49.0, 44.5], [47.3333333333333, 44.75], [46.0, 44.25], [46.0, 44.25], [46.0, 48.5], [53.0, 48.5]]]}, "properties": {"Region": "Dacia"}}, {"type": "Feature", "geometry": {"type": "Polygon", "coordinates": [[[47.0, 41.6666666666667], [45.0, 44.5], [46.0, 44.25], [47.3333333333333, 44.75], [49.0, 44.5], [49.5, 43.75], [49.5, 43.75], [50.0, 43.0], [49.0, 42.3333333333333], [47.0, 41.6666666666667]]]}, "properties": {"Region": "Moesia S."}}, {"type": "Feature", "geometry": {"type": "Polygon", "coordinates": [[[57.50084285132931, 48.499915714867065], [57.00084285132931, 47.999915714867065], [56.50084285132931, 47.666582381533765], [56.66750951799601, 47.666582381533765], [56.25084285132931, 47.499915714867065], [56.00084285132931, 47.249915714867065], [56.25084285132931, 46.999915714867065], [56.00084285132931, 46.833249048200365], [56.25084285132931, 46.666582381533765], [56.25084285132931, 46.499915714867065], [56.50084285132931, 46.416582381533765], [56.00084285132931, 46.083249048200365], [56.33417618466261, 45.999915714867065], [55.66750951799601, 45.999915714867065], [55.00084285132931, 45.833249048200365], [54.66750951799601, 45.499915714867065], [54.66750951799601, 45.249915714867065], [55.00084285132931, 45.166582381533765], [54.83417618466261, 44.999915714867065], [54.75084285132931, 44.833249048200365], [54.66750951799601, 44.666582381533765], [55.00084285132931, 44.666582381533765], [50.00084285132931, 42.999915714867065], [50.00084285132931, 42.999915714867065], [49.50084285132931, 43.749915714867065], [50.25084285132931, 43.999915714867065], [51.00084285132931, 43.999915714867065], [54.33417618466261, 45.749915714867065], [53.66750951799601, 46.666582381533765], [53.00084285132931, 48.499915714867065], [57.50084285132931, 48.499915714867065]]]}, "properties": {"Region": "Moesia I."}}, {"type": "Feature", "geometry": {"type": "Polygon", "coordinates": [[[48.999932730541126, 42.33326534404587], [50.0, 43.0], [55.00084285132931, 44.666582381533765], [54.999932730541126, 44.66659867737927], [54.749932730541126, 44.49993201071257], [54.749932730541126, 44.24993201071257], [54.999932730541126, 44.49993201071257], [55.166599397207825, 43.99993201071257], [55.666599397207825, 43.99993201071257], [55.333266063874426, 43.66659867737927], [55.499932730541126, 43.49993201071257], [55.499932730541126, 43.33326534404587], [55.999932730541126, 43.08326534404587], [55.499932730541126, 42.99993201071257], [55.499932730541126, 42.91659867737927], [54.999932730541126, 42.49993201071257], [54.833266063874426, 42.33326534404587], [54.833266063874426, 42.16659867737927], [54.666599397207825, 41.99993201071257], [54.499932730541126, 41.91659867737927], [54.499932730541126, 41.74993201071257], [54.499932730541126, 41.49993201071257], [53.749932730541126, 41.49993201071257], [53.499932730541126, 41.49993201071257], [53.249932730541126, 41.33326534404587], [53.166599397207825, 41.49993201071257], [52.999932730541126, 41.49993201071257], [52.666599397207825, 41.66659867737927], [52.166599397207825, 41.74993201071257], [52.166599397207825, 41.74993201071257], [51.249932730541126, 41.74993201071257], [48.999932730541126, 41.74993201071257], [48.999932730541126, 41.74993201071257], [48.999932730541126, 42.33326534404587]]]}, "properties": {"Region": "Thrace"}}, {"type": "Feature", "geometry": {"type": "Polygon", "coordinates": [[[16.3333333333333, 61.1666666666667], [16.3333333333333, 61.1666666666667], [15.3333333333333, 60.6666666666667], [15.0, 60.25], [15.0, 60.0], [14.6666666666667, 59.6666666666667], [14.0, 59.0], [13.3333333333333, 59.0], [13.8333333333333, 58.6666666666667], [13.6666666666667, 58.6666666666667], [14.0, 57.8333333333333], [12.5, 57.8333333333333], [10.3333333333333, 58.0], [7.66666666666667, 57.5], [8.0, 58.0], [9.33333333333333, 58.3333333333333], [9.5, 59.5], [10.3333333333333, 59.5], [10.5, 60.0], [11.3333333333333, 60.3333333333333], [11.0, 61.0], [12.0, 61.3333333333333], [13.0, 61.0], [14.0, 61.1666666666667], [16.3333333333333, 61.1666666666667]]]}, "properties": {"Region": "Hibernia"}}, {"type": "Feature", "geometry": {"type": "Polygon", "coordinates": [[[21.0, 61.6666666666667], [21.0, 61.6666666666667], [20.5, 60.8333333333333], [21.3333333333333, 60.5], [22.25, 59.3333333333333], [24.0, 60.0], [23.0, 60.6666666666667], [27.0, 60.6666666666667], [29.0, 60.5], [30.0, 60.5], [31.3333333333333, 60.25], [31.3333333333333, 59.6666666666667], [29.0, 59.6666666666667], [27.5, 59.3333333333333], [27.0, 59.6666666666667], [27.0, 59.0], [27.3333333333333, 58.75], [27.5, 58.5], [26.0, 58.5], [25.0, 58.8333333333333], [24.0, 58.5], [22.5, 59.0], [21.6666666666667, 58.5], [20.1666666666667, 58.5], [20.75, 57.5], [21.0, 57.0], [21.25, 56.6666666666667], [21.0, 56.5], [20.5, 55.6666666666667], [20.8333333333333, 55.6666666666667], [21.25, 55.0833333333333], [20.5, 55.0], [20.5, 54.5], [22.0, 54.0], [21.0, 53.5], [20.3333333333333, 53.0], [19.0, 53.0], [17.6666666666667, 52.6666666666667], [17.6666666666667, 52.3333333333333], [15.6666666666667, 52.1666666666667], [14.0, 51.75], [12.0, 51.5], [11.5, 52.5], [14.0, 52.75], [16.0, 53.5], [17.3333333333333, 54.5], [14.3333333333333, 54.5], [15.5, 55.1666666666667], [15.3333333333333, 55.8333333333333], [15.0, 56.0], [15.5, 56.5], [15.6666666666667, 56.3333333333333], [17.0, 57.0], [17.3333333333333, 57.3333333333333], [17.5, 57.75], [17.5, 58.3333333333333], [18.5, 58.75], [18.3333333333333, 59.5], [18.0, 60.0], [19.0, 60.3333333333333], [19.5, 60.3333333333333], [21.0, 61.6666666666667]]]}, "properties": {"Region": "Albion"}}, {"type": "Feature", "geometry": {"type": "Polygon", "coordinates": [[[54.499841827602296, 41.49991430824594], [54.999841827602296, 41.49991430824594], [54.916508494268996, 41.24991430824594], [54.916508494268996, 40.99991430824594], [54.666508494268996, 40.74991430824594], [54.499841827602296, 40.74991430824594], [54.333175160935596, 40.66658097491264], [54.166508494268996, 41.08324764157924], [53.749841827602296, 41.49991430824594], [53.749841827602296, 41.49991430824594], [54.499841827602296, 41.49991430824594]]]}, "properties": {"Region": "Thracian Chersonessos"}}, {"type": "Feature", "geometry": {"type": "Polygon", "coordinates": [[[45.0, 41.0], [47.0, 41.673594421221196], [49.0, 42.3333333333333], [48.999932730541126, 41.74993201071257], [49.998760793218544, 41.750000000000014], [51.25, 41.75], [51.25, 41.75], [50.8333333333333, 41.75], [50.25, 41.4166666666667], [50.1666666666667, 41.3333333333333], [50.3333333333333, 41.1666666666667], [50.6666666666667, 41.0], [51.0, 41.1666666666667], [51.25, 41.25], [51.1666666666667, 41.0], [51.1666666666667, 40.75], [50.9166666666667, 40.9166666666667], [50.6666666666667, 40.9166666666667], [50.3333333333333, 40.6666666666667], [51.25, 40.5], [51.25, 40.3333333333333], [50.75, 40.4166666666667], [50.6666666666667, 40.3333333333333], [51.25, 39.9166666666667], [51.0833333333333, 40.0], [50.6666666666667, 40.1666666666667], [50.5, 40.0833333333333], [49.8333333333333, 40.3333333333333], [49.5, 40.0], [49.6666666666667, 39.75], [50.0, 39.5833333333333], [50.1666666666667, 39.5], [50.5, 39.4166666666667], [51.3333333333333, 39.6666666666667], [51.75, 39.25], [51.1666666666667, 39.25], [50.8333333333333, 38.9166666666667], [51.0, 38.9166666666667], [51.5, 38.8333333333333], [51.3333333333333, 38.8333333333333], [51.1666666666667, 38.75], [51.0, 38.6666666666667], [51.0, 38.5], [49.0, 38.5], [48.3333333333333, 38.5], [47.6666666666667, 38.75], [45.0, 39.3333333333333], [44.9166666666667, 39.5], [45.0, 39.75], [44.8333333333333, 39.9166666666667], [45.0, 40.0], [45.0833333333333, 40.1666666666667], [45.0833333333333, 40.5], [45.0, 40.6666666666667], [45.0, 41.0]]]}, "properties": {"Region": "Makedonia"}}, {"type": "Feature", "geometry": {"type": "Polygon", "coordinates": [[[45.0, 39.3333333333333], [47.676896379411055, 38.73624196243522], [48.3333333333333, 38.5], [49.0, 38.5], [49.0, 38.5], [48.70061139325262, 37.986762388433036], [48.4166666666667, 37.5], [48.3333333333333, 37.5833333333333], [47.8333333333333, 37.6666666666667], [47.6666666666667, 37.75], [48.0, 38.3333333333333], [47.8333333333333, 38.25], [47.4166666666667, 37.9166666666667], [47.25, 37.9166666666667], [47.1666666666667, 38.0], [46.75, 38.0], [46.75, 38.0833333333333], [46.1666666666667, 38.0], [46.1666666666667, 38.3333333333333], [45.75, 38.3333333333333], [45.75, 38.1666666666667], [45.5, 38.4166666666667], [45.3333333333333, 38.5833333333333], [45.0, 38.6666666666667], [44.4166666666667, 39.1666666666667], [45.0, 39.25], [45.0, 39.3333333333333]]]}, "properties": {"Region": "Epeiros"}}, {"type": "Feature", "geometry": {"type": "Polygon", "coordinates": [[[48.4166666666667, 37.5], [48.70061139325262, 37.986762388433036], [49.0, 38.5], [51.0, 38.5], [51.0, 38.5], [51.25, 38.4166666666667], [51.5, 38.4166666666667], [52.0, 38.3333333333333], [52.1666666666667, 38.4166666666667], [52.25, 38.1666666666667], [52.6666666666667, 38.1666666666667], [53.0, 38.0833333333333], [53.0833333333333, 38.0], [53.1666666666667, 37.8333333333333], [53.3333333333333, 37.6666666666667], [53.5, 37.5833333333333], [53.5, 37.4166666666667], [53.8333333333333, 37.3333333333333], [53.6666666666667, 37.0833333333333], [53.6666666666667, 37.0], [53.5833333333333, 36.75], [53.5, 36.8333333333333], [53.25, 37.0], [52.8333333333333, 37.0833333333333], [52.75, 37.1666666666667], [52.3333333333333, 37.25], [52.0, 37.3333333333333], [51.4166666666667, 37.4166666666667], [51.0833333333333, 37.5833333333333], [50.5, 37.5], [50.0, 37.5], [49.9166666666667, 37.8333333333333], [49.75, 37.75], [49.5, 37.5833333333333], [49.3333333333333, 37.4166666666667], [49.25, 37.5], [49.0, 37.5], [48.5, 37.4166666666667], [48.4166666666667, 37.5]]]}, "properties": {"Region": "Attica"}}, {"type": "Feature", "geometry": {"type": "Polygon", "coordinates": [[[52.3333333333333, 38.5833333333333], [52.3333333333333, 38.5833333333333], [53.0, 38.5833333333333], [53.5, 38.3333333333333], [53.3333333333333, 38.5], [53.8333333333333, 38.1666666666667], [54.5, 38.1666666666667], [54.5, 37.9166666666667], [55.0, 37.8333333333333], [54.6666666666667, 37.75], [54.5, 37.6666666666667], [54.5, 37.5], [54.25, 37.3333333333333], [54.0833333333333, 37.75], [53.8333333333333, 37.8333333333333], [53.5, 38.0], [53.0, 38.4166666666667], [52.5, 38.5], [52.3333333333333, 38.5833333333333]]]}, "properties": {"Region": "Euboea"}}, {"type": "Feature", "geometry": {"type": "Polygon", "coordinates": [[[51.4166666666667, 37.4166666666667], [52.0, 37.3333333333333], [52.0, 37.3333333333333], [51.6666666666667, 37.0], [51.4166666666667, 36.9166666666667], [51.4166666666667, 36.75], [51.5, 36.5833333333333], [51.75, 36.5], [51.8333333333333, 36.4166666666667], [52.1666666666667, 36.3333333333333], [52.3333333333333, 36.0833333333333], [52.5, 36.0833333333333], [52.0, 36.0], [51.75, 35.9166666666667], [51.5833333333333, 36.0], [51.5, 35.75], [51.3333333333333, 35.8333333333333], [51.0, 35.6666666666667], [51.0833333333333, 35.5], [51.1666666666667, 35.25], [51.1666666666667, 35.1666666666667], [51.3333333333333, 35.0], [51.0, 35.0833333333333], [51.0, 35.0], [50.8333333333333, 35.0833333333333], [50.75, 35.1666666666667], [50.4166666666667, 35.1666666666667], [50.0, 34.75], [50.0, 34.3333333333333], [49.9166666666667, 34.8333333333333], [49.75, 35.1666666666667], [49.5, 35.25], [49.25, 35.25], [49.0, 35.0833333333333], [48.8333333333333, 35.0], [48.5, 35.0], [48.75, 35.25], [48.5833333333333, 35.3333333333333], [48.5, 35.4166666666667], [48.5833333333333, 35.5], [48.4166666666667, 35.6666666666667], [48.5833333333333, 35.75], [48.3333333333333, 35.9166666666667], [48.0833333333333, 36.0], [48.3333333333333, 36.25], [48.0, 36.3333333333333], [48.3333333333333, 36.5], [48.5, 36.5], [48.5, 36.75], [48.6666666666667, 36.6666666666667], [49.0, 36.8333333333333], [49.25, 37.0], [49.3333333333333, 37.1666666666667], [49.5, 36.9166666666667], [49.75, 36.9166666666667], [50.25, 36.9166666666667], [50.6666666666667, 37.0], [51.0833333333333, 36.9166666666667], [51.3333333333333, 37.0833333333333], [51.25, 37.25], [51.4166666666667, 37.4166666666667]]]}, "properties": {"Region": "Peloponessos"}}, {"type": "Feature", "geometry": {"type": "Polygon", "coordinates": [[[52.5, 35.0], [52.5, 35.0], [53.0, 35.0], [53.1666666666667, 35.1666666666667], [53.25, 35.0], [53.5, 35.0833333333333], [53.75, 35.0833333333333], [53.8333333333333, 35.1666666666667], [54.1666666666667, 35.25], [54.6666666666667, 35.25], [54.75, 35.3333333333333], [55.1666666666667, 35.3333333333333], [55.3333333333333, 35.25], [55.8333333333333, 35.4166666666667], [55.6666666666667, 35.25], [55.5, 35.1666666666667], [55.3333333333333, 35.0833333333333], [55.25, 35.0], [55.1666666666667, 35.0], [55.0, 34.9166666666667], [54.8333333333333, 34.9166666666667], [54.75, 34.8333333333333], [54.5833333333333, 34.8333333333333], [54.5833333333333, 34.75], [54.1666666666667, 34.75], [54.0, 34.75], [53.75, 34.6666666666667], [53.75, 34.8333333333333], [53.5833333333333, 34.75], [53.25, 34.6666666666667], [52.8333333333333, 34.6666666666667], [52.6666666666667, 34.5833333333333], [52.5833333333333, 34.3333333333333], [52.5833333333333, 34.5], [52.5, 34.5], [52.5, 34.5833333333333], [52.3333333333333, 34.6666666666667], [52.0833333333333, 34.6666666666667], [52.4166666666667, 34.75], [52.3333333333333, 34.8333333333333], [52.4166666666667, 34.8333333333333], [52.5, 35.0]]]}, "properties": {"Region": "Krete"}}, {"type": "Feature", "geometry": {"type": "Polygon", "coordinates": [[[6.0, 35.9166666666667], [6.0, 35.9166666666667], [6.5, 35.9166666666667], [7.0, 35.8333333333333], [7.5, 35.9166666666667], [7.83333333333333, 35.6666666666667], [8.0, 35.5], [8.33333333333333, 35.0833333333333], [8.5, 35.0], [8.83333333333333, 35.1666666666667], [9.0, 34.9166666666667], [9.5, 34.5], [10.0, 35.0], [10.0, 34.75], [10.1666666666667, 34.0], [10.75, 34.75], [11.1666666666667, 34.8333333333333], [11.6666666666667, 26.25], [8.0, 26.5], [8.33333333333333, 27.3333333333333], [8.66666666666667, 27.8333333333333], [8.0, 28.5], [8.0, 29.0], [7.5, 29.25], [8.0, 29.9166666666667], [7.5, 30.0], [7.5, 30.25], [7.33333333333333, 30.8333333333333], [6.75, 31.25], [7.33333333333333, 31.6666666666667], [7.0, 32.0], [6.66666666666667, 32.5], [6.66666666666667, 32.75], [6.0, 33.1666666666667], [6.16666666666667, 33.6666666666667], [6.66666666666667, 33.8333333333333], [6.16666666666667, 34.1666666666667], [6.5, 34.3333333333333], [6.33333333333333, 34.6666666666667], [6.16666666666667, 35.25], [6.0, 35.3333333333333], [6.0, 35.9166666666667]]]}, "properties": {"Region": "M. Tingitana"}}, {"type": "Feature", "geometry": {"type": "Polygon", "coordinates": [[[11.6666666666667, 26.25], [11.1666666666667, 34.8333333333333], [11.1666666666667, 34.8333333333333], [11.75, 35.0], [11.8333333333333, 34.75], [12.0, 34.6666666666667], [12.25, 34.6666666666667], [12.5, 34.5], [12.75, 34.5], [13.0, 34.0], [13.3333333333333, 34.0], [13.5, 33.75], [13.8333333333333, 33.8333333333333], [14.25, 33.6666666666667], [14.8333333333333, 33.6666666666667], [15.1666666666667, 33.5], [15.5, 33.5], [15.8333333333333, 33.6666666666667], [16.1666666666667, 33.5], [16.6666666666667, 33.3333333333333], [17.0, 33.3333333333333], [17.5, 33.5], [17.6666666666667, 33.0], [18.0, 33.0], [18.1666666666667, 33.4166666666667], [18.5, 32.75], [19.1666666666667, 32.9166666666667], [19.5, 32.8333333333333], [20.0, 32.8333333333333], [20.25, 32.75], [20.5, 32.75], [20.75, 32.6666666666667], [21.0, 32.6666666666667], [21.5, 32.5], [22.1666666666667, 32.5], [22.6666666666667, 32.3333333333333], [23.0, 32.25], [23.3333333333333, 32.0833333333333], [23.6666666666667, 32.25], [23.8333333333333, 32.0], [24.0, 32.0], [24.6666666666667, 31.8333333333333], [25.1666666666667, 31.75], [26.25, 31.75], [26.0, 26.0], [26.3333333333333, 25.0], [11.6666666666667, 26.25]]]}, "properties": {"Region": "M. Caesarensis"}}, {"type": "Feature", "geometry": {"type": "Polygon", "coordinates": [[[26.3333333333333, 25.0], [26.0, 26.0], [26.25, 31.75], [26.25, 31.75], [27.0, 31.75], [27.3333333333333, 32.5], [27.3333333333333, 32.3333333333333], [27.75, 32.5], [28.1666666666667, 32.5], [28.6666666666667, 32.0], [29.0, 32.5], [29.3333333333333, 32.5833333333333], [29.5, 32.6666666666667], [30.0, 32.75], [30.6666666666667, 32.6666666666667], [30.8333333333333, 32.6666666666667], [30.3333333333333, 32.25], [30.5, 32.25], [31.25, 32.3333333333333], [31.6666666666667, 32.8333333333333], [32.0, 32.75], [32.5, 32.75], [33.0, 32.5], [33.5, 33.5], [33.3333333333333, 32.75], [33.6666666666667, 32.5], [34.0, 32.6666666666667], [34.1666666666667, 32.5], [34.8333333333333, 32.5], [34.8333333333333, 32.6666666666667], [35.0, 32.6666666666667], [35.0, 33.5], [35.25, 33.3333333333333], [35.5, 33.1666666666667], [35.75, 33.0], [36.0, 32.8333333333333], [36.5, 32.6666666666667], [36.6666666666667, 32.6666666666667], [36.8333333333333, 32.6666666666667], [37.1666666666667, 32.5], [37.25, 32.5], [37.75, 32.3333333333333], [38.0, 32.3333333333333], [38.5, 32.3333333333333], [38.1666666666667, 32.1666666666667], [38.5, 32.0], [38.5, 31.6666666666667], [38.5, 31.25], [38.6666666666667, 30.5], [38.8333333333333, 30.5], [39.3333333333333, 30.3333333333333], [40.1666666666667, 31.25], [40.6666666666667, 31.3333333333333], [41.0, 31.5], [41.25, 31.5], [41.5, 31.6666666666667], [42.0, 31.6666666666667], [42.25, 31.5], [42.5, 31.5], [42.9166666666667, 31.3333333333333], [42.6666666666667, 31.3333333333333], [43.6666666666667, 31.0], [43.5, 30.8333333333333], [43.6666666666667, 30.3333333333333], [43.8333333333333, 30.0], [44.1666666666667, 29.6666666666667], [44.5, 29.3333333333333], [45.0, 29.0], [46.0, 29.0], [46.75, 29.0], [46.75, 25.0], [26.3333333333333, 25.0]]]}, "properties": {"Region": "Africa"}}, {"type": "Feature", "geometry": {"type": "Polygon", "coordinates": [[[46.75, 25.0], [46.75, 29.0], [46.75, 29.0], [47.25, 29.1666666666667], [47.25, 29.3333333333333], [47.3333333333333, 29.6666666666667], [47.25, 30.0], [47.3333333333333, 30.5], [47.3333333333333, 30.8333333333333], [47.25, 31.1666666666667], [47.5, 31.25], [47.8333333333333, 31.3333333333333], [48.25, 31.3333333333333], [48.3333333333333, 31.3333333333333], [49.0833333333333, 31.1666666666667], [49.5, 31.5], [49.5, 31.6666666666667], [49.8333333333333, 31.8333333333333], [50.0, 31.8333333333333], [50.1666666666667, 31.6666666666667], [50.3333333333333, 31.6666666666667], [50.5, 31.5], [50.75, 31.3333333333333], [51.0, 31.3333333333333], [51.25, 31.25], [51.27219468427096, 25.022194684270954], [46.75, 25.0]]]}, "properties": {"Region": "Cyrenaica"}}, {"type": "Feature", "geometry": {"type": "Polygon", "coordinates": [[[51.27219468427096, 25.022194684270954], [51.25, 31.25], [51.25, 31.25], [51.6666666666667, 31.25], [52.0, 31.6666666666667], [52.1666666666667, 31.25], [53.1666666666667, 31.25], [53.5, 31.1666666666667], [53.75, 31.25], [54.0, 31.1666666666667], [54.3333333333333, 31.1666666666667], [54.75, 31.25], [55.0, 31.1666666666667], [55.75, 31.1666666666667], [56.0, 31.5], [56.3333333333333, 31.0833333333333], [56.6666666666667, 31.0833333333333], [57.0, 31.1666666666667], [57.1666666666667, 31.1666666666667], [57.3333333333333, 31.0833333333333], [57.5, 31.1666666666667], [57.6666666666667, 31.0833333333333], [57.8333333333333, 31.1666666666667], [58.0, 31.25], [58.6666666666667, 31.0833333333333], [58.8333333333333, 31.1666666666667], [59.0, 31.0833333333333], [59.1666666666667, 31.1666666666667], [59.5, 31.0833333333333], [59.75, 31.0], [60.0, 31.0833333333333], [60.5, 31.0], [60.75, 31.0833333333333], [61.75, 31.0833333333333], [62.1666666666667, 31.1666666666667], [62.75, 31.1666666666667], [63.0, 31.25], [63.6666666666667, 31.25], [63.8333333333333, 31.1666666666667], [64.25, 31.1666666666667], [64.6666666666667, 31.8333333333333], [64.8333333333333, 31.6666666666667], [64.8333333333333, 31.6666666666667], [64.25, 30.6666666666667], [63.5, 29.8333333333333], [63.3333333333333, 29.1666666666667], [63.3333333333333, 28.8333333333333], [64.0, 27.8333333333333], [64.0833333333333, 27.5], [64.25, 26.75], [64.3333333333333, 26.1666666666667], [64.5, 26.0], [64.5, 25.5], [64.8333333333333, 25.0], [64.6666666666667, 24.6666666666667], [64.0833333333333, 23.8333333333333], [64.75, 23.5], [65.0, 23.0], [51.25, 23.0], [51.27219468427096, 25.022194684270954]]]}, "properties": {"Region": "Egypt"}}, {"type": "Feature", "geometry": {"type": "Polygon", "coordinates": [[[51.25, 23.0], [51.25, -3.16666666666667], [14.0, 4.0], [14.0, 5.25], [14.5, 6.66666666666667], [13.0, 8.0], [13.5, 9.0], [12.5, 9.5], [11.0, 10.5], [9.5, 11.5], [8.5, 11.5], [8.0, 13.0], [10.5, 13.0], [10.0, 14.0], [10.0, 15.5], [10.5, 16.5], [9.5, 17.5], [10.0, 18.3333333333333], [11.0, 19.0], [10.0, 20.0], [9.5, 20.5], [10.0, 21.6666666666667], [9.66666666666667, 22.0], [9.0, 23.0], [9.0, 25.0], [8.0, 26.5], [8.022194684270957, 26.522194684270954], [26.3333333333333, 25.0], [51.27219468427096, 25.022194684270954], [51.25, 23.0]]]}, "properties": {"Region": "Inner Libya"}}, {"type": "Feature", "geometry": {"type": "Polygon", "coordinates": [[[51.25, -3.16666666666667], [51.25, 23.0], [65.0, 23.0], [65.0, 23.0], [65.0, 22.0], [65.5, 21.5], [65.0, 21.1666666666667], [65.0, 21.0], [65.3333333333333, 20.25], [65.5, 19.75], [65.6666666666667, 19.6666666666667], [65.6666666666667, 19.0], [65.5, 18.5], [65.6666666666667, 18.0], [65.5, 17.5], [65.75, 17.0], [66.0, 16.5], [66.5, 16.5], [67.0, 15.0], [66.0, 14.25], [68.0, 13.6666666666667], [68.0, 13.0], [68.0, 12.5], [67.0, 11.6666666666667], [68.0, 11.6666666666667], [72.0, 10.25], [72.25, 10.3333333333333], [73.75, 10.6666666666667], [74.5, 11.0], [74.0, 8.41666666666667], [75.0, 6.5], [78.0, 7.0], [79.0, 9.0], [80.0, 8.0], [81.0, 7.5], [82.0, 7.0], [83.0, 6.0], [82.0, 5.0], [81.0, 4.25], [81.0, 3.5], [80.0, 3.5], [79.0, 3.0], [79.0, 2.0], [78.0, 1.0], [76.0, 0.5], [73.5, 0.0], [74.0, -3.0], [73.0, -4.0], [72.5, -7.0], [73.8333333333333, -8.41666666666667], [51.25, -3.16666666666667]]]}, "properties": {"Region": "Ethiopia South of Egypt"}}, {"type": "Feature", "geometry": {"type": "Polygon", "coordinates": [[[73.8333333333333, -8.41666666666667], [80.0, -15.0], [80.0, -15.0], [73.8333333333333, -8.41666666666667]]]}, "properties": {"Region": "Inner Ethiopia"}}, {"type": "Feature", "geometry": {"type": "Polygon", "coordinates": [[[56.41885356846646, 43.33346472793386], [56.75218690179976, 43.33346472793386], [56.75218690179976, 43.33346472793386], [57.00218690179976, 43.91679806126726], [57.25218690179976, 43.08346472793386], [57.66885356846646, 43.00013139460056], [58.00218690179976, 42.75013139460056], [58.83552023513306, 43.00013139460056], [58.75218690179976, 43.33346472793386], [59.00218690179976, 43.50013139460056], [59.50218690179976, 43.50013139460056], [60.25218690179976, 43.50013139460056], [60.75218690179976, 43.75013139460056], [61.0, 43.5833333333333], [61.00047425038462, 41.249061821776955], [57.00047425038462, 41.665728488443655], [56.3333333333333, 41.75], [56.33552023513306, 41.91679806126726], [57.33552023513306, 42.08346472793386], [56.75218690179976, 42.25013139460056], [56.50218690179976, 42.41679806126726], [57.00218690179976, 42.50013139460056], [57.00218690179976, 42.91679806126726], [56.75218690179976, 43.00013139460056], [56.41885356846646, 43.08346472793386], [56.41885356846646, 43.33346472793386]]]}, "properties": {"Region": "Pontus and Bithynia"}}, {"type": "Feature", "geometry": {"type": "Polygon", "coordinates": [[[56.33314028454124, 41.7498439179979], [57.00028120159256, 41.665572406441555], [57.00028120159256, 41.665572406441555], [61.00028120159256, 41.248905739774855], [62.25028120159256, 39.248905739774855], [60.980883566121584, 37.86156232896072], [60.980883566121584, 37.86156232896072], [59.501228655634726, 37.83201342945242], [59.16694786825926, 35.998905739774855], [59.00028120159256, 36.082239073108155], [58.25028120159256, 36.165572406441555], [58.00028120159256, 36.165572406441555], [57.66694786825926, 35.998905739774855], [57.33361453492586, 35.915572406441555], [57.00028120159256, 35.832239073108155], [56.66694786825926, 35.332239073108155], [57.00028120159256, 35.998905739774855], [57.33361453492586, 36.165572406441555], [57.33361453492586, 36.415572406441555], [57.66694786825926, 36.415572406441555], [57.83361453492586, 36.665572406441555], [57.83361453492586, 36.832239073108155], [58.00028120159256, 36.998905739774855], [58.00028120159256, 37.082239073108155], [58.83361453492586, 37.165572406441555], [57.83361453492586, 37.415572406441555], [57.66694786825926, 37.498905739774855], [57.16694786825926, 37.665572406441555], [57.66694786825926, 37.665572406441555], [57.66694786825926, 37.832239073108155], [57.66694786825926, 38.165572406441555], [57.50028120159256, 38.332239073108155], [57.16694786825926, 38.415572406441555], [56.66694786825926, 38.582239073108155], [57.00028120159256, 38.582239073108155], [57.41694786825926, 38.582239073108155], [57.50028120159256, 38.748905739774855], [57.50028120159256, 38.832239073108155], [57.33361453492586, 38.998905739774855], [57.00028120159256, 39.082239073108155], [57.25028120159256, 39.248905739774855], [57.00028120159256, 39.415572406441555], [56.50028120159256, 39.748905739774855], [56.25028120159256, 39.498905739774855], [56.16694786825926, 39.582239073108155], [56.83361453492586, 39.748905739774855], [56.50028120159256, 39.998905739774855], [56.50028120159256, 40.332239073108155], [56.25028120159256, 40.498905739774855], [56.16694786825926, 40.665572406441555], [56.00028120159256, 40.748905739774855], [55.66694786825926, 40.415572406441555], [55.41694786825926, 40.665572406441555], [55.16694786825926, 40.998905739774855], [55.25028120159256, 40.998905739774855], [55.25028120159256, 41.082239073108155], [55.33361453492586, 41.165572406441555], [55.33361453492586, 41.248905739774855], [55.33361453492586, 41.415572406441555], [55.50028120159256, 41.498905739774855], [55.75028120159256, 41.498905739774855], [56.00028120159256, 41.832239073108155], [56.00028120159256, 41.498905739774855], [56.33314028454124, 41.7498439179979]]]}, "properties": {"Region": "Asia"}}, {"type": "Feature", "geometry": {"type": "Polygon", "coordinates": [[[59.167895322301426, 35.99868009611912], [59.501228655634726, 37.83201342945242], [59.501228655634726, 37.83201342945242], [60.98107661491365, 37.86171841096282], [61.83456198896803, 36.49868009611912], [61.83456198896803, 36.415346762785816], [61.58456198896803, 36.24868009611912], [61.501228655634726, 36.08201342945242], [61.167895322301426, 36.33201342945242], [60.751228655634726, 36.415346762785816], [60.501228655634726, 36.33201342945242], [60.501228655634726, 35.99868009611912], [60.33456198896803, 35.99868009611912], [60.167895322301426, 35.83201342945242], [60.001228655634726, 35.915346762785816], [59.33456198896803, 35.915346762785816], [59.167895322301426, 35.99868009611912]]]}, "properties": {"Region": "Lycia"}}, {"type": "Feature", "geometry": {"type": "Polygon", "coordinates": [[[60.992725209256584, 43.62604234437814], [61.1737158093386, 43.833070544132184], [61.5070491426719, 43.999737210798884], [61.3403824760052, 44.416403877465584], [61.5070491426719, 44.249737210798884], [61.7570491426719, 44.083070544132184], [62.0070491426719, 43.999737210798884], [62.5070491426719, 43.999737210798884], [62.9237158093386, 43.916403877465584], [63.3403824760052, 43.916403877465584], [63.8403824760052, 43.999737210798884], [63.6737158093386, 43.666403877465584], [64.0070491426719, 43.499737210798884], [64.2570491426719, 43.333070544132184], [64.5070491426719, 43.166403877465584], [65.0070491426719, 43.083070544132184], [65.13247946859008, 43.071850461984944], [65.5070491426719, 43.166403877465584], [64.2570491426719, 38.583070544132184], [60.98107661491365, 37.86171841096282], [62.228401275841264, 39.26406114421421], [60.978401275841264, 41.26406114421421], [61.0070491426719, 41.249737210798884], [60.992725209256584, 43.62604234437814]]]}, "properties": {"Region": "Galatia"}}, {"type": "Feature", "geometry": {"type": "Polygon", "coordinates": [[[61.82805533112284, 36.511702697965404], [61.82805533112284, 36.511702697965404], [61.003149589457, 37.84671908852557], [64.24472199778954, 38.595036031298704], [63.99472199778954, 37.678369364632104], [63.82805533112284, 36.678369364632104], [63.82805533112284, 36.761702697965404], [63.41138866445624, 36.678369364632104], [62.99472199778954, 36.928369364632104], [62.66138866445624, 36.845036031298704], [62.82805533112284, 36.511702697965404], [62.24472199778954, 36.928369364632104], [62.24472199778954, 36.511702697965404], [61.99472199778954, 36.928369364632104], [61.82805533112284, 36.511702697965404]]]}, "properties": {"Region": "Pamphylia"}}, {"type": "Feature", "geometry": {"type": "Polygon", "coordinates": [[[65.50000991770581, 43.16658776719598], [65.66667658437251, 43.33325443386258], [66.00000991770581, 42.99992110052928], [66.33334325103911, 43.08325443386258], [66.83334325103911, 43.33325443386258], [67.00000991770581, 43.24992110052928], [67.25000991770581, 43.08325443386258], [67.50000991770581, 43.24992110052928], [67.58334325103911, 43.08325443386258], [67.83334325103911, 43.24992110052928], [68.33334325103911, 43.33325443386258], [68.83334325103911, 43.33325443386258], [69.33334325103911, 43.08325443386258], [70.75000991770581, 43.33325443386258], [70.75000991770581, 43.08325443386258], [71.00000991770581, 43.41658776719598], [71.16667658437251, 43.83325443386258], [71.25000991770581, 43.74992110052928], [71.33334325103911, 43.74992110052928], [71.66667658437251, 43.83325443386258], [72.00000991770581, 43.99992110052928], [72.08334325103911, 44.16658776719598], [72.33334325103911, 44.33325443386258], [72.33334325103911, 44.49992110052928], [72.66667658437251, 44.66658776719598], [72.50000991770581, 44.74992110052928], [73.00000991770581, 44.74992110052928], [72.75000991770581, 42.99992110052928], [71.00000991770581, 42.49992110052928], [71.00000991770581, 42.49992110052928], [71.50000991770581, 40.49992110052928], [71.00000991770581, 39.33325443386258], [71.33334325103911, 38.49992110052928], [71.33334325103911, 38.49992110052928], [70.00000991770581, 37.33325443386258], [64.00000991770581, 37.66658776719598], [64.25000991770581, 38.58325443386258], [65.50000991770581, 43.16658776719598], [65.50000991770581, 43.16658776719598]]]}, "properties": {"Region": "Cappadocia"}}, {"type": "Feature", "geometry": {"type": "Polygon", "coordinates": [[[63.831104356075045, 36.66547298002828], [63.997771022741745, 37.66547298002828], [63.997771022741745, 37.66547298002828], [69.99777102274174, 37.33213964669488], [69.49777102274174, 36.33213964669488], [69.33110435607504, 36.91547298002828], [68.99777102274174, 36.49880631336158], [68.49777102274174, 36.49880631336158], [68.24777102274174, 36.49880631336158], [67.99777102274174, 36.49880631336158], [67.74777102274174, 36.66547298002828], [67.24777102274174, 36.66547298002828], [66.99777102274174, 36.74880631336158], [66.74777102274174, 36.74880631336158], [66.49777102274174, 36.83213964669488], [66.33110435607504, 36.66547298002828], [66.33110435607504, 36.83213964669488], [66.16443768940844, 36.74880631336158], [65.99777102274174, 36.83213964669488], [64.99777102274174, 36.83213964669488], [64.83110435607504, 36.58213964669488], [64.66443768940844, 36.83213964669488], [64.33110435607504, 36.74880631336158], [63.997771022741745, 36.74880631336158], [63.831104356075045, 36.66547298002828]]]}, "properties": {"Region": "Cilicia"}}, {"type": "Feature", "geometry": {"type": "Polygon", "coordinates": [[[73.00004105223222, 44.74996513937401], [74.00004105223222, 44.66663180604071], [76.00004105223222, 44.66663180604071], [79.66670771889892, 44.49996513937401], [79.75004105223222, 43.83329847270731], [79.75004105223222, 43.33329847270731], [79.00004105223222, 42.49996513937401], [80.50004105223222, 39.99996513937401], [75.50004105223222, 38.49996513937401], [71.33337438556552, 38.49996513937401], [71.33337438556552, 38.49996513937401], [71.00004105223222, 39.33329847270731], [71.50004105223222, 40.49996513937401], [71.00004105223222, 42.49996513937401], [72.75004105223222, 42.99996513937401], [72.75004105223222, 42.99996513937401], [73.00004105223222, 44.74996513937401]]]}, "properties": {"Region": "Armenia"}}, {"type": "Feature", "geometry": {"type": "Polygon", "coordinates": [[[64.66724577447548, 35.58407879961199], [64.66724577447548, 35.75074546627869], [65.00057910780878, 36.00074546627869], [65.16724577447548, 36.16741213294539], [65.33391244114208, 35.83407879961199], [65.50057910780878, 35.58407879961199], [65.66724577447548, 35.75074546627869], [66.00057910780878, 35.75074546627869], [66.50057910780878, 35.66741213294539], [66.66724577447548, 35.83407879961199], [66.83391244114208, 35.91741213294539], [67.50057910780878, 35.83407879961199], [67.00057910780878, 35.66741213294539], [66.66724577447548, 35.50074546627869], [66.83391244114208, 35.33407879961199], [67.00057910780878, 35.16741213294539], [66.75057910780878, 35.00074546627869], [65.75057910780878, 35.00074546627869], [65.50057910780878, 34.75074546627869], [65.33391244114208, 35.08407879961199], [65.00057910780878, 35.00074546627869], [64.75057910780878, 34.83407879961199], [64.50057910780878, 34.75074546627869], [64.50057910780878, 35.00074546627869], [64.16724577447548, 35.08407879961199], [64.33391244114208, 35.16741213294539], [64.16724577447548, 35.50074546627869], [64.16724577447548, 35.50074546627869], [64.66724577447548, 35.58407879961199]]]}, "properties": {"Region": "Cyprus"}}, {"type": "Feature", "geometry": {"type": "Polygon", "coordinates": [[[69.50002460472459, 36.33326490006648], [70.00002460472459, 37.33326490006648], [71.33335793805789, 38.49993156673318], [71.33335793805789, 38.49993156673318], [71.66669127139129, 37.33326490006648], [73.00002460472459, 35.08326490006648], [70.50002460472459, 31.83326490006648], [68.00002460472459, 31.24993156673318], [67.50002460472459, 32.33326490006648], [66.33335793805789, 32.58326490006648], [66.50002460472459, 32.66659823339988], [66.41669127139129, 32.91659823339988], [66.83335793805789, 32.83326490006648], [66.83335793805789, 32.99993156673318], [67.16669127139129, 33.24993156673318], [67.00002460472459, 33.33326490006648], [67.16669127139129, 33.49993156673318], [67.50002460472459, 33.58326490006648], [67.50002460472459, 33.66659823339988], [67.66669127139129, 33.74993156673318], [67.66669127139129, 33.91659823339988], [67.50002460472459, 34.08326490006648], [67.33335793805789, 34.24993156673318], [67.50002460472459, 34.33326490006648], [67.83335793805789, 34.33326490006648], [68.00002460472459, 34.41659823339988], [68.33335793805789, 34.49993156673318], [68.33335793805789, 35.16659823339988], [68.50002460472459, 35.24993156673318], [68.50002460472459, 35.49993156673318], [68.58335793805789, 35.58326490006648], [69.00002460472459, 35.83326490006648], [69.33335793805789, 35.66659823339988], [69.50002460472459, 35.83326490006648], [69.50002460472459, 36.08326490006648], [69.50002460472459, 36.33326490006648]]]}, "properties": {"Region": "Syria"}}, {"type": "Feature", "geometry": {"type": "Polygon", "coordinates": [[[66.33332940763862, 32.5833015194941], [67.49999607430532, 32.3333015194941], [67.99999607430532, 31.249968186160796], [64.24999607430532, 30.666634852827496], [64.83332940763862, 31.666634852827496], [64.91666274097201, 31.499968186160796], [64.99999607430532, 31.666634852827496], [65.24999607430532, 31.833301519494096], [64.99999607430532, 31.999968186160796], [65.66666274097201, 32.0833015194941], [65.99999607430532, 32.2499681861608], [66.24999607430532, 32.4999681861608], [66.33332940763862, 32.5833015194941]]]}, "properties": {"Region": "Palestina/Judaea"}}, {"type": "Feature", "geometry": {"type": "Polygon", "coordinates": [[[64.25003921284913, 30.66660950583117], [68.00003921284913, 31.24994283916447], [70.50003921284913, 31.83327617249777], [70.00003921284913, 30.49994283916447], [66.00003921284913, 28.99994283916447], [65.66670587951583, 29.24994283916447], [65.00003921284913, 28.49994283916447], [63.50003921284913, 29.83327617249777], [64.25003921284913, 30.66660950583117]]]}, "properties": {"Region": "Arabia  Petraea"}}, {"type": "Feature", "geometry": {"type": "Polygon", "coordinates": [[[73.00001440149244, 35.0833333333333], [71.66668106815914, 37.3333333333333], [71.33334773482574, 38.5], [71.33334773482574, 38.5], [75.50001440149244, 38.5], [79.00001440149244, 36.3333333333333], [79.33334773482574, 36.3333333333333], [79.50001440149244, 36.0833333333333], [80.00001440149244, 34.3333333333333], [79.00001440149244, 35.6666666666667], [78.25001440149244, 35.6666666666667], [76.25001440149244, 33.3333333333333], [75.75001440149244, 33.8333333333333], [74.00001440149244, 35.0], [73.00001440149244, 35.0833333333333]]]}, "properties": {"Region": "Mesopotamia"}}, {"type": "Feature", "geometry": {"type": "Polygon", "coordinates": [[[73.00016615910405, 35.08331527275092], [74.00016615910405, 34.99998193941762], [75.75016615910405, 33.83331527275092], [76.25016615910405, 33.33331527275092], [79.00016615910405, 30.166648606084323], [79.00016615910405, 28.999981939417623], [70.00016615910405, 30.499981939417623], [70.50016615910405, 31.833315272750923], [73.00016615910405, 35.08331527275092]]]}, "properties": {"Region": "Arabia Deserta"}}, {"type": "Feature", "geometry": {"type": "Polygon", "coordinates": [[[76.24994982935321, 33.3333333333333], [78.24994982935321, 35.6666666666667], [78.99994982935321, 35.6666666666667], [79.99994982935321, 34.3333333333333], [80.49994982935321, 31.0], [79.49994982935321, 30.25], [78.99994982935321, 30.1666666666667], [76.24994982935321, 33.3333333333333]]]}, "properties": {"Region": "Babylonia"}}, {"type": "Feature", "geometry": {"type": "Polygon", "coordinates": [[[64.00002145237481, 63.0], [84.97416607230484, 62.999465491225024], [85.00263719547218, 54.0], [87.50002145237481, 48.8333333333333], [87.00002145237481, 48.3333333333333], [86.50002145237481, 47.6666666666667], [86.00002145237481, 47.0], [77.00002145237481, 47.0], [75.00002145237481, 47.0], [75.00002145237481, 47.5], [70.50002145237481, 47.0], [70.00002145237481, 46.8333333333333], [69.66668811904151, 47.3333333333333], [69.66668811904151, 47.25], [68.50002145237481, 47.25], [68.00002145237481, 47.0], [68.00002145237481, 47.5], [67.50002145237481, 47.3333333333333], [67.00002145237481, 47.5], [66.33335478570811, 47.5], [66.50002145237481, 47.6666666666667], [66.00002145237481, 48.0], [65.50002145237481, 47.8333333333333], [65.00002145237481, 47.5], [64.50002145237481, 47.8333333333333], [64.25002145237481, 47.5], [64.50002145237481, 48.5], [66.50002145237481, 48.25], [66.33335478570811, 48.5], [68.00002145237481, 48.3333333333333], [69.00002145237481, 48.5], [70.00002145237481, 49.0], [70.00002145237481, 49.3333333333333], [69.66668811904151, 49.8333333333333], [68.00002145237481, 50.0], [69.00002145237481, 50.5], [68.50002145237481, 51.3333333333333], [68.50002145237481, 52.0], [68.00002145237481, 52.5], [68.00002145237481, 53.0], [69.66668811904151, 53.5], [67.00002145237481, 54.5], [72.5, 56.0], [64.00002145237481, 58.0], [64.00002145237481, 58.0], [64.00002145237481, 63.0]]]}, "properties": {"Region": "Asian Sarmatia"}}, {"type": "Feature", "geometry": {"type": "Polygon", "coordinates": [[[70.5000057669078, 47.000010736848], [75.0000057669078, 47.500010736848], [75.0000057669078, 47.000010736848], [74.0000057669078, 44.6666774035147], [73.0000057669078, 44.750010736848], [72.5000057669078, 44.750010736848], [72.5000057669078, 45.000010736848], [72.0000057669078, 45.500010736848], [71.5000057669078, 45.6666774035147], [71.5000057669078, 46.1666774035147], [71.0000057669078, 46.500010736848], [71.1666724335745, 46.750010736848], [70.5000057669078, 47.000010736848]]]}, "properties": {"Region": "Colchis"}}, {"type": "Feature", "geometry": {"type": "Polygon", "coordinates": [[[74.00000293526864, 44.66664199620595], [75.00000293526864, 46.999975329539254], [75.00000293526864, 46.999975329539254], [77.00000293526864, 46.999975329539254], [76.00000293526864, 44.66664199620595], [74.00000293526864, 44.66664199620595]]]}, "properties": {"Region": "Iberia"}}, {"type": "Feature", "geometry": {"type": "Polygon", "coordinates": [[[75.99995272678272, 44.66662974181778], [76.99995272678272, 46.99996307515108], [85.99995272678272, 46.99996307515108], [84.49995272678272, 46.49996307515108], [82.49995272678272, 45.99996307515108], [81.66661939344942, 45.83329640848438], [80.99995272678272, 45.49996307515108], [79.49995272678272, 44.99996307515108], [79.66661939344942, 44.49996307515108], [75.99995272678272, 44.66662974181778]]]}, "properties": {"Region": "Albania"}}, {"type": "Feature", "geometry": {"type": "Polygon", "coordinates": [[[75.50004927608371, 38.5], [80.50004927608371, 40.0], [83.00004927608371, 38.0], [84.00004927608371, 36.0], [80.00004927608371, 34.3333333333333], [79.50004927608371, 36.0833333333333], [79.33338260941701, 36.3333333333333], [79.00004927608371, 36.3333333333333], [75.50004927608371, 38.5]]]}, "properties": {"Region": "Assyria"}}, {"type": "Feature", "geometry": {"type": "Polygon", "coordinates": [[[79.74999998242203, 43.3333333451103], [79.99999998242203, 43.000000011777], [80.99999998242203, 42.750000011777], [81.66666664908873, 42.500000011777], [82.49999998242203, 42.500000011777], [83.99999998242203, 42.250000011777], [84.66666664908873, 42.000000011777], [85.49999998242203, 41.500000011777], [86.49999998242203, 41.500000011777], [87.49999998242203, 40.6666666784437], [88.24999998242203, 40.250000011777], [90.33333331575533, 40.000000011777], [91.99999998242203, 40.000000011777], [92.99999998242203, 40.500000011777], [93.99999998242203, 40.500000011777], [93.99999998242203, 39.000000011777], [93.99999998242203, 37.000000011777], [93.99999998242203, 34.500000011777], [83.99999998242203, 36.000000011777], [82.99999998242203, 38.000000011777], [80.49999998242203, 40.000000011777], [78.99999998242203, 42.500000011777], [79.74999998242203, 43.3333333451103]]]}, "properties": {"Region": "Media"}}, {"type": "Feature", "geometry": {"type": "Polygon", "coordinates": [[[80.49998067029853, 31.0001136814491], [79.99998067029853, 34.3334470147824], [83.99998067029853, 36.0001136814491], [86.49998067029853, 30.5001136814491], [84.49998067029853, 30.5001136814491], [84.49998067029853, 30.6667803481158], [82.99998067029853, 31.0001136814491], [81.99998067029853, 30.6667803481158], [81.66664733696523, 31.0001136814491], [80.49998067029853, 31.0001136814491]]]}, "properties": {"Region": "Susiane"}}, {"type": "Feature", "geometry": {"type": "Polygon", "coordinates": [[[86.49999993064586, 30.499999891281945], [83.99999993064586, 35.999999891281945], [93.99999993064586, 34.499999891281945], [93.99999993064586, 30.999999891281945], [93.99999993064586, 29.249999891281945], [92.99999993064586, 29.333333224615245], [91.99999993064586, 29.666666557948645], [89.99999993064586, 29.749999891281945], [89.66666659731256, 29.499999891281945], [88.49999993064586, 29.999999891281945], [87.49999993064586, 30.166666557948645], [86.49999993064586, 30.499999891281945]]]}, "properties": {"Region": "Persis"}}, {"type": "Feature", "geometry": {"type": "Polygon", "coordinates": [[[94.00000001276068, 38.99999993285577], [101.00000001276068, 38.99999993285577], [101.50000001276068, 33.33333326618907], [94.00000001276068, 34.49999993285577], [94.00000001276068, 38.99999993285577]]]}, "properties": {"Region": "Parthia"}}, {"type": "Feature", "geometry": {"type": "Polygon", "coordinates": [[[94.00000001780322, 34.49999998198505], [101.50000001780322, 33.33333331531835], [101.50000001780322, 33.33333331531835], [101.00000001780322, 29.83333331531835], [94.00000001780322, 30.99999998198505], [94.00000001780322, 34.49999998198505]]]}, "properties": {"Region": "Carmanian desert"}}, {"type": "Feature", "geometry": {"type": "Polygon", "coordinates": [[[66.00000232029038, 28.99996490108931], [70.00000232029038, 30.49996490108931], [79.00000232029038, 28.99996490108931], [79.00000232029038, 28.74996490108931], [79.25000232029038, 28.24996490108931], [79.25000232029038, 27.66663156775601], [79.66666898695708, 27.33329823442261], [79.75000232029038, 26.99996490108931], [80.33333565362368, 26.49996490108931], [80.16666898695708, 26.16663156775601], [80.00000232029038, 25.66663156775601], [80.00000232029038, 25.33329823442261], [80.00000232029038, 24.99996490108931], [80.00000232029038, 24.16663156775601], [80.00000232029038, 23.33329823442261], [81.00000232029038, 23.33329823442261], [82.00000232029038, 23.24996490108931], [83.66666898695708, 23.49996490108931], [84.25000232029038, 22.99996490108931], [85.00000232029038, 22.99996490108931], [86.00000232029038, 23.16663156775601], [86.50000232029038, 23.49996490108931], [87.33333565362368, 23.49996490108931], [88.00000232029038, 23.16663156775601], [92.50000232029038, 23.33329823442261], [93.00000232029038, 21.99996490108931], [92.66666898695708, 21.49996490108931], [93.00000232029038, 20.24996490108931], [92.33333565362368, 20.24996490108931], [91.66666898695708, 19.99996490108931], [91.00000232029038, 19.99996490108931], [90.25000232029038, 19.33329823442261], [89.50000232029038, 20.16663156775601], [89.00000232029038, 18.99996490108931], [88.50000232029038, 18.49996490108931], [87.50000232029038, 17.49996490108931], [87.33333565362368, 16.74996490108931], [88.00000232029038, 15.99996490108931], [90.00000232029038, 13.99996490108931], [88.50000232029038, 13.99996490108931], [87.00000232029038, 13.99996490108931], [86.33333565362368, 13.74996490108931], [85.50000232029038, 13.49996490108931], [85.00000232029038, 13.49996490108931], [84.66666898695708, 12.99996490108931], [84.33333565362368, 12.99996490108931], [84.00000232029038, 12.66663156775601], [84.00000232029038, 12.49996490108931], [83.66666898695708, 11.49996490108931], [83.50000232029038, 11.74996490108931], [83.00000232029038, 11.49996490108931], [82.50000232029038, 11.49996490108931], [82.00000232029038, 11.74996490108931], [81.50000232029038, 11.74996490108931], [80.66666898695708, 11.74996490108931], [80.00000232029038, 11.49996490108931], [78.66666898695708, 11.49996490108931], [78.00000232029038, 11.74996490108931], [77.00000232029038, 11.74996490108931], [76.25000232029038, 11.24996490108931], [75.50000232029038, 11.49996490108931], [74.8780250446913, 11.501082469604405], [74.50000232029038, 11.66663156775601], [75.00000232029038, 11.99996490108931], [75.00000232029038, 12.49996490108931], [74.75000232029038, 12.99996490108931], [74.50000232029038, 13.99996490108931], [74.25000232029038, 14.49996490108931], [73.50000232029038, 14.99996490108931], [73.50000232029038, 16.49996490108931], [72.50000232029038, 16.49996490108931], [72.25000232029038, 17.16663156775601], [71.75000232029038, 18.16663156775601], [70.66666898695708, 19.49996490108931], [70.00000232029038, 20.24996490108931], [69.50000232029038, 20.66663156775601], [69.66666898695708, 20.99996490108931], [69.33333565362368, 21.49996490108931], [69.33333565362368, 21.99996490108931], [69.00000232029038, 22.66663156775601], [68.50000232029038, 23.24996490108931], [68.00000232029038, 23.99996490108931], [67.00000232029038, 25.66663156775601], [67.25000232029038, 25.66663156775601], [67.33333565362368, 26.33329823442261], [67.00000232029038, 26.66663156775601], [66.50000232029038, 27.33329823442261], [66.66666898695708, 27.74996490108931], [66.33333565362368, 28.66663156775601], [66.00000232029038, 28.99996490108931]]]}, "properties": {"Region": "Arabia Felix"}}, {"type": "Feature", "geometry": {"type": "Polygon", "coordinates": [[[94.00000096578825, 29.24999857656747], [94.00000096578825, 30.99999857656747], [101.00000096578825, 29.83333190990077], [104.00000096578825, 19.99999857656747], [103.25000096578825, 20.16666524323417], [103.00000096578825, 20.16666524323417], [102.50000096578825, 19.99999857656747], [101.00000096578825, 19.99999857656747], [101.25000096578825, 20.66666524323417], [101.00000096578825, 20.99999857656747], [101.25000096578825, 21.66666524323417], [101.16666763245524, 21.99999857656747], [100.50000096578825, 22.33333190990077], [99.50000096578825, 22.66666524323417], [98.50000096578825, 22.66666524323417], [98.25000096578825, 22.49999857656747], [97.50000096578825, 22.99999857656747], [96.50000096578825, 22.99999857656747], [96.00000096578825, 22.49999857656747], [94.00000096578825, 22.16666524323417], [94.00000096578825, 23.66666524323417], [94.50000096578825, 23.49999857656747], [95.66666763245495, 24.49999857656747], [96.00000096578825, 24.99999857656747], [96.66666763245495, 25.99999857656747], [96.00000096578825, 25.99999857656747], [95.50000096578825, 27.66666524323417], [95.25000096578825, 28.66666524323417], [94.00000096578825, 29.24999857656747]]]}, "properties": {"Region": "Carmania"}}, {"type": "Feature", "geometry": {"type": "Polygon", "coordinates": [[[95.0, 39.0], [95.0, 40.5], [97.3333333333333, 41.5], [97.5, 42.0], [100.0, 43.0], [102.0, 39.0], [95.0, 39.0]]]}, "properties": {"Region": "Hyrcania"}}, {"type": "Feature", "geometry": {"type": "Polygon", "coordinates": [[[100.0, 43.0], [102.666666666667, 43.5], [103.0, 44.0], [109.0, 39.0], [101.00000001276068, 38.99999993285577], [100.0, 43.0]]]}, "properties": {"Region": "Margiane"}}, {"type": "Feature", "geometry": {"type": "Polygon", "coordinates": [[[103.0, 44.0], [109.0, 44.3333333333333], [112.5, 44.0], [116.5, 44.0], [119.5, 39.0], [111.0, 39.0], [109.0, 39.0], [103.0, 44.0]]]}, "properties": {"Region": "Bactria"}}, {"type": "Feature", "geometry": {"type": "Polygon", "coordinates": [[[103.0, 44.0], [110.0, 49.0], [120.0, 48.5], [121.0, 47.5], [123.0, 47.0], [125.0, 43.0], [125.0, 38.5], [119.5, 39.0], [116.5, 44.0], [112.5, 44.0], [109.0, 44.3333333333333], [103.0, 44.0], [103.0, 44.0]]]}, "properties": {"Region": "Sogdians"}}, {"type": "Feature", "geometry": {"type": "Polygon", "coordinates": [[[120.0, 48.5], [130.0, 49.0], [140.0, 43.0], [145.0, 35.0], [140.0, 36.0], [136.0, 37.0], [125.0, 38.5], [125.0, 43.0], [123.0, 47.0], [121.0, 47.5], [120.0, 48.5]]]}, "properties": {"Region": "Sakai"}}, {"type": "Feature", "geometry": {"type": "Polygon", "coordinates": [[[140.0, 43.0], [130.0, 49.0], [120.0, 48.5], [110.0, 49.0], [103.0, 44.0], [102.666666666667, 43.5], [100.0, 43.0], [102.0, 44.0], [103.0, 45.5], [100.0, 47.3333333333333], [97.0, 48.0], [94.0, 48.25], [91.0, 48.25], [87.50002145237481, 48.8333333333333], [85.00263719547218, 54.0], [84.97416607230484, 62.999465491225024], [140.0, 63.0], [140.0, 43.0]]]}, "properties": {"Region": "Scythia before Imaos"}}, {"type": "Feature", "geometry": {"type": "Polygon", "coordinates": [[[145.0, 35.0], [140.0, 43.0], [140.0, 63.0], [150.0, 63.0], [160.0, 35.0], [145.0, 35.0]]]}, "properties": {"Region": "Scythia beyond Imaos"}}, {"type": "Feature", "geometry": {"type": "Polygon", "coordinates": [[[150.0, 63.0], [180.0, 63.0], [180.0, 35.0], [173.0, 35.0], [160.0, 35.0], [150.0, 63.0]]]}, "properties": {"Region": "Serike"}}, {"type": "Feature", "geometry": {"type": "Polygon", "coordinates": [[[111.0, 39.0], [111.0, 34.0], [105.0, 32.0], [101.00000001780322, 29.83333331531835], [101.50000001780322, 33.33333331531835], [101.50000001780322, 33.33333331531835], [101.00000001276068, 38.99999993285577], [109.0, 39.0], [111.0, 39.0]]]}, "properties": {"Region": "Areia"}}, {"type": "Feature", "geometry": {"type": "Polygon", "coordinates": [[[111.0, 34.0], [111.0, 39.0], [119.5, 39.0], [119.0, 32.6666666666667], [111.0, 34.0]]]}, "properties": {"Region": "Paropanisads"}}, {"type": "Feature", "geometry": {"type": "Polygon", "coordinates": [[[101.00000001780322, 29.83333331531835], [105.0, 32.0], [111.0, 34.0], [111.5, 28.0], [101.00000001780322, 29.83333331531835]]]}, "properties": {"Region": "Drangiane"}}, {"type": "Feature", "geometry": {"type": "Polygon", "coordinates": [[[111.5, 28.0], [111.0, 34.0], [119.0, 32.6666666666667], [119.0, 28.0], [111.5, 28.0]]]}, "properties": {"Region": "Arachosia"}}, {"type": "Feature", "geometry": {"type": "Polygon", "coordinates": [[[104.00000096578825, 19.99999857656747], [101.00000001780322, 29.83333331531835], [111.5, 28.0], [119.0, 28.0], [109.0, 20.0], [108.666666666667, 20.25], [108.0, 20.0], [107.0, 20.25], [106.0, 20.0], [105.333333333333, 20.5], [105.0, 20.25], [104.00000096578825, 19.99999857656747]]]}, "properties": {"Region": "Gedrosia"}}, {"type": "Feature", "geometry": {"type": "Polygon", "coordinates": [[[109.0, 20.0], [119.0, 28.0], [119.0, 32.6666666666667], [119.5, 39.0], [125.0, 38.5], [136.0, 37.0], [135.0, 34.0], [136.5, 32.5], [136.333333333333, 31.5], [140.25, 30.3333333333333], [142.0, 28.0], [143.5, 27.25], [144.0, 27.0], [146.0, 22.0], [146.5, 21.0], [146.5, 21.0], [148.5, 18.25], [148.5, 18.25], [148.5, 18.25], [148.5, 18.25], [148.5, 18.25], [147.666666666667, 18.5], [147.0, 18.5], [146.5, 18.6666666666667], [145.666666666667, 18.5], [145.0, 18.5], [144.5, 18.25], [143.5, 18.25], [142.666666666667, 18.0], [142.0, 18.0], [141.0, 17.6666666666667], [140.0, 17.25], [139.0, 16.5], [138.5, 16.0], [137.666666666667, 15.5], [137.25, 14.6666666666667], [137.0, 14.0], [136.5, 13.5], [136.333333333333, 12.6666666666667], [136.333333333333, 12.0], [136.666666666667, 11.5], [136.333333333333, 11.0], [135.666666666667, 11.1666666666667], [135.0, 11.3333333333333], [134.5, 11.5], [134.0, 11.5], [133.166666666667, 12.0], [132.333333333333, 12.1666666666667], [131.666666666667, 12.75], [131.0, 14.3333333333333], [130.25, 14.75], [130.0, 14.5], [129.0, 15.3333333333333], [128.333333333333, 15.75], [128.333333333333, 15.75], [128.0, 16.0], [127.0, 16.1666666666667], [126.0, 16.0], [125.333333333333, 15.1666666666667], [125.25, 14.3333333333333], [125.666666666667, 13.3333333333333], [124.0, 14.6666666666667], [123.0, 15.0], [122.0, 14.5], [121.75, 13.5], [121.333333333333, 14.0], [121.0, 14.5], [120.666666666667, 14.0], [120.333333333333, 14.3333333333333], [120.0, 14.3333333333333], [119.5, 14.5], [118.666666666667, 14.3333333333333], [118.0, 14.3333333333333], [117.666666666667, 14.25], [117.333333333333, 14.0], [116.666666666667, 14.0], [116.75, 14.3333333333333], [116.0, 14.5], [115.5, 14.6666666666667], [115.0, 14.3333333333333], [114.5, 13.8333333333333], [114.333333333333, 14.5], [113.666666666667, 14.6666666666667], [113.0, 14.1666666666667], [111.75, 14.0], [111.5, 14.3333333333333], [110.0, 14.75], [110.5, 15.0], [111.5, 15.0], [112.25, 15.1666666666667], [112.166666666667, 15.5], [112.5, 16.0], [112.5, 16.5], [112.0, 16.75], [112.0, 17.0], [111.0, 17.5], [113.833333333333, 17.8333333333333], [114.0, 18.3333333333333], [114.166666666667, 18.6666666666667], [114.0, 19.5], [113.666666666667, 20.6666666666667], [113.333333333333, 20.25], [112.5, 20.25], [111.666666666667, 19.8333333333333], [110.333333333333, 19.8333333333333], [109.75, 20.0], [109.0, 20.0]]]}, "properties": {"Region": "India before Ganges"}}, {"type": "Feature", "geometry": {"type": "Polygon", "coordinates": [[[148.5, 18.25], [146.5, 21.0], [146.0, 22.0], [144.0, 27.0], [143.5, 27.25], [142.0, 28.0], [140.25, 30.3333333333333], [136.333333333333, 31.5], [136.5, 32.5], [135.0, 34.0], [136.0, 37.0], [140.0, 36.0], [145.0, 35.0], [160.0, 35.0], [173.0, 35.0], [173.0, 17.3333333333333], [171.5, 17.3333333333333], [169.0, 16.6666666666667], [168.0, 15.5], [167.0, 14.5], [167.25, 13.6666666666667], [167.0, 12.5], [167.0, 10.0], [167.0, 8.5], [167.5, 7.0], [168.0, 6.0], [169.0, 4.25], [168.333333333333, 4.75], [167.0, 4.83333333333333], [166.333333333333, 4.75], [165.666666666667, 4.75], [165.0, 4.83333333333333], [163.0, 4.83333333333333], [162.5, 4.25], [163.25, 2.66666666666667], [164.333333333333, 0.0], [164.0, -1.0], [163.0, -2.0], [161.0, -2.0], [160.0, -3.0], [159.0, 1.0], [158.666666666667, 2.66666666666667], [160.0, 4.25], [159.0, 4.66666666666667], [162.5, 6.0], [162.333333333333, 8.41666666666667], [162.0, 9.0], [159.0, 8.5], [157.666666666667, 8.0], [157.5, 9.0], [157.5, 10.0], [155.5, 10.6666666666667], [154.333333333333, 11.3333333333333], [153.5, 12.5], [153.5, 13.75], [153.0, 14.5], [152.5, 16.0], [151.333333333333, 17.0], [150.0, 18.0], [148.5, 18.25]]]}, "properties": {"Region": "India beyond Ganges"}}, {"type": "Feature", "geometry": {"type": "Polygon", "coordinates": [[[173.0, 17.3333333333333], [173.0, 35.0], [180.0, 35.0], [180.05303171016368, -16.424299583420723], [79.97330067904237, -16.424299583420726], [80.0, -15.0], [177.00080069638273, -14.405510124960099], [177.0, -8.5], [177.0, -7.0], [175.0, 0.0], [176.0, 2.0], [175.0, 4.0], [176.333333333333, 6.5], [177.0, 8.5], [176.666666666667, 12.5], [175.0, 16.0], [173.0, 17.3333333333333]]]}, "properties": {"Region": "Sinai"}}, {"type": "Feature", "geometry": {"type": "Polygon", "coordinates": [[[126.0, 12.5], [126.333333333333, 11.6666666666667], [126.333333333333, 11.6666666666667], [127.0, 11.3333333333333], [128.0, 11.0], [128.666666666667, 9.66666666666667], [128.5, 9.0], [129.0, 8.5], [129.0, 8.0], [129.0, 7.33333333333333], [130.0, 7.5], [130.666666666667, 6.5], [131.0, 5.66666666666667], [130.0, 4.66666666666667], [130.0, 4.0], [131.0, 3.25], [131.0, 2.33333333333333], [131.0, 1.33333333333333], [131.5, 1.0], [132.5, -0.666666666666667], [130.0, -1.5], [127.666666666667, -2.33333333333333], [126.0, -2.0], [125.0, -2.5], [123.0, -2.0], [123.333333333333, -1.0], [121.666666666667, 0.0], [120.5, 1.0], [121.0, 2.0], [121.0, 2.66666666666667], [122.0, 3.66666666666667], [122.0, 5.0], [122.333333333333, 6.25], [122.0, 7.75], [123.333333333333, 8.83333333333333], [123.5, 10.3333333333333], [124.0, 11.3333333333333], [126.0, 12.5]]]}, "properties": {"Region": "Taprobane"}}, {"type": "Feature", "geometry": {"type": "Polygon", "coordinates": [[[14.0, 4.0], [51.25, -3.16666666666667], [73.8333333333333, -8.41666666666667], [80.0, -15.0], [79.97330067904237, -16.424299583420726], [0.014542912393905816, -16.410480233651164], [0.014542912393905816, -6.792212794040495], [14.0, 4.0]]]}, "properties": {"Region": "Inner Ethopia"}}, {"type": "Feature", "geometry": {"type": "Polygon", "coordinates": [[[101.50000001780322, 33.33333331531835], [101.0, 39.0], [101.00000001276068, 38.99999993285577], [101.50000001780322, 33.33333331531835]]]}, "properties": {"Region": "Masdoranon"}}, {"type": "Feature", "geometry": {"type": "Polygon", "coordinates": [[[55.25225649115294, 40.16486553750471], [55.41892315781964, 40.41486553750471], [55.66892315781964, 39.83153220417131], [55.66892315781964, 39.66486553750471], [56.00225649115294, 39.41486553750471], [55.41892315781964, 39.49819887083801], [55.25225649115294, 39.66486553750471], [55.00225649115294, 39.99819887083801], [55.25225649115294, 40.16486553750471]]]}, "properties": {"Region": "Lesbos"}}, {"type": "Feature", "geometry": {"type": "Polygon", "coordinates": [[[56.334024473954564, 38.9166666666667], [56.417357807287964, 38.4166666666667], [56.334024473954564, 38.25], [56.334024473954564, 38.9166666666667]]]}, "properties": {"Region": "Chios"}}, {"type": "Feature", "geometry": {"type": "Polygon", "coordinates": [[[55.83264208953871, 36.8324628003918], [55.99930875620541, 36.9991294670585], [56.16597542287211, 36.8324628003918], [55.83264208953871, 36.8324628003918]]]}, "properties": {"Region": "Amorgos"}}, {"type": "Feature", "geometry": {"type": "Polygon", "coordinates": [[[57.000082678050795, 35.66824586815308], [57.333416011384095, 35.41824586815308], [57.416749344717495, 35.08491253481968], [57.000082678050795, 35.66824586815308]]]}, "properties": {"Region": "Karpathos"}}, {"type": "Feature", "geometry": {"type": "Polygon", "coordinates": [[[57.99994921610093, 35.91404211149339], [58.33328254943423, 35.99737544482669], [58.66661588276763, 35.99737544482669], [58.49994921610093, 35.49737544482669], [58.33328254943423, 35.74737544482669], [57.99994921610093, 35.91404211149339]]]}, "properties": {"Region": "Rhodos"}}, {"type": "Feature", "geometry": {"type": "Polygon", "coordinates": [[[46.99999557639465, 41.67359567936457], [44.99999557639465, 44.50000125814337], [45.99999557639465, 44.25000125814337], [47.33332890972795, 44.75000125814337], [48.99999557639465, 44.50000125814337], [49.49999557639465, 43.75000125814337], [49.49999557639465, 43.75000125814337], [49.99999557639465, 43.00000125814337], [48.99999557639465, 42.33333459147667], [48.99999557639465, 42.33333459147667], [46.99999557639465, 41.67359567936457]]]}, "properties": {"Region": "Melite"}}]}