{"type": "FeatureCollection", "features": [{"type": "Feature", "geometry": {"type": "LineString", "coordinates": [[20.0, 54.0], [19.75, 53.1666666666667], [19.75, 53.1666666666667], [19.75, 53.1666666666667], [19.75, 53.1666666666667]]}, "properties": {"name": "london-noviomagus", "source": "Marinos", "chapter": "1.15", "disputed": 1, "Type": "north-sout"}}, {"type": "Feature", "geometry": {"type": "LineString", "coordinates": [[34.5, 44.9166666666667], [34.6666666666667, 44.0], [34.6666666666667, 44.0]]}, "properties": {"name": "Ravenna-Tergeste", "source": "Marinos", "chapter": "1.15", "disputed": 1, "Type": "north-sout"}}, {"type": "Feature", "geometry": {"type": "LineString", "coordinates": [[34.6666666666667, 44.0], [34.6666666666667, 44.0], [34.6666666666667, 44.0], [34.6666666666667, 44.0], [33.5, 42.75], [33.5, 42.75]]}, "properties": {"name": "Ravenna-Pisae", "source": "Marinos", "chapter": "1.15", "disputed": 1, "Type": "east-west"}}, {"type": "Feature", "geometry": {"type": "LineString", "coordinates": [[18.25070625987068, 33.33228491913403], [20.3333333333333, 42.3333333333333], [20.3333333333333, 42.3333333333333]]}, "properties": {"name": "Iol Caesarea-Pyrenees", "source": "Marinos", "chapter": "1.15", "disputed": 1, "Type": "north-sout"}}, {"type": "Feature", "geometry": {"type": "LineString", "coordinates": [[16.3333333333333, 40.6666666666667], [18.25070625987068, 33.33228491913403]]}, "properties": {"name": "Tarraco-Iol Caearea", "source": "Marinos", "chapter": "1.15", "disputed": 1, "Type": "north-sout"}}, {"type": "Feature", "geometry": {"type": "LineString", "coordinates": [[110.333333333333, 19.8333333333333], [110.0, 14.75], [110.0, 14.75]]}, "properties": {"name": "Indus-Simylla", "source": "Marinos", "chapter": "1.17", "disputed": 0, "Type": "north-sout"}}, {"type": "Feature", "geometry": {"type": "LineString", "coordinates": [[36.5, 45.3333333333333], [37.5, 45.5], [37.5, 46.8333333333333], [37.5, 46.8333333333333]]}, "properties": {"name": "Pannonia-Italy", "source": "Marinos", "chapter": "1.16", "disputed": 1, "Type": "boundary"}}, {"type": "Feature", "geometry": {"type": "LineString", "coordinates": [[49.0, 42.3333333333333], [49.99999557639465, 43.00000125814337], [49.99999557639465, 43.00000125814337]]}, "properties": {"name": "Moesia-Thrace", "source": "Marinos", "chapter": "1.16", "disputed": 1, "Type": "boundary"}}, {"type": "Feature", "geometry": {"type": "LineString", "coordinates": [[65.1666666666667, 35.5], [65.3333333333333, 35.1666666666667], [65.3333333333333, 35.1666666666667]]}, "properties": {"name": "Akamas-Paphos", "source": "Marinos", "chapter": "1.15", "disputed": 1, "Type": "north-sout"}}, {"type": "Feature", "geometry": {"type": "LineString", "coordinates": [[62.756945453703175, 31.081112957462462], [65.3333333333333, 35.1666666666667], [65.3333333333333, 35.1666666666667]]}, "properties": {"name": "Paphos-Sebennytos", "source": "Marinos", "chapter": "1.15", "disputed": 1, "Type": "north-sout"}}, {"type": "Feature", "geometry": {"type": "LineString", "coordinates": [[34.8333333333333, 32.6666666666667], [80.0, 37.25], [80.0, 37.25]]}, "properties": {"name": "Carthage-Arbela", "source": "Ptolemy", "chapter": "1.4", "disputed": 0, "Type": "eclipse"}}, {"type": "Feature", "geometry": {"type": "LineString", "coordinates": [[43.248723791844185, 31.669646784431677], [44.26172625465354, 21.480601991689326], [44.25721235354866, 21.480601991689326]]}, "properties": {"name": "Leptis Magna-Garame", "source": "Marinos", "chapter": "1.8", "disputed": 1, "Type": "journey"}}, {"type": "Feature", "geometry": {"type": "LineString", "coordinates": [[84.25002891302758, 5.9999795604948645], [73.75002891302758, -7.0000204395051355], [66.27863090383804, -7.014537883312572]]}, "properties": {"name": "Aromata-Nile Lakes", "source": "Marinos/Diogenes", "chapter": "1.9", "disputed": 1, "Type": "journey"}}, {"type": "Feature", "geometry": {"type": "LineString", "coordinates": [[84.25002891302758, 5.9999795604948645], [73.75002891302758, -7.0000204395051355], [75.08336224636086, -8.416687106171805]]}, "properties": {"name": "Rhapta-Aromata", "source": "Marinos", "chapter": "1.9", "disputed": 1, "Type": "journey"}}, {"type": "Feature", "geometry": {"type": "LineString", "coordinates": [[73.75002891302758, -7.0000204395051355], [81.25288859238978, -15.019916908059159], [81.25288859238978, -15.019916908059159]]}, "properties": {"name": "Rhapta-Cape Prason", "source": "Marinos/Dioskoros", "chapter": "1.9", "disputed": 1, "Type": "journey"}}, {"type": "Feature", "geometry": {"type": "LineString", "coordinates": [[135.0, 43.0], [177.25, 38.5833333333333], [177.25, 38.5833333333333]]}, "properties": {"name": "Stone Tower-Sera", "source": "Marinos", "chapter": "1.10", "disputed": 1, "Type": "journey"}}, {"type": "Feature", "geometry": {"type": "LineString", "coordinates": [[0.0, 16.0], [2.5, 38.25], [5.08333333333333, 37.1666666666667], [7.5, 36.25], [32.5, 36.0], [37.0, 36.0], [40.0, 36.3333333333333], [50.0, 34.3333333333333], [58.66661588276763, 35.99737544482669], [69.33110435607504, 36.91547298002828], [71.25, 36.25]]}, "properties": {"name": "Blessed Isles-Hierapolis", "source": "Marinos", "chapter": "1.12", "disputed": 0, "Type": "degrees"}}, {"type": "Feature", "geometry": {"type": "LineString", "coordinates": [[125.666666666667, 13.3333333333333], [128.0, 16.0], [136.666666666667, 11.5], [154.333333333333, 11.3333333333333], [157.5, 9.0], [162.5, 4.25], [162.5, 4.25]]}, "properties": {"name": "Kory-Golden Peninsula", "source": "Marinos/?", "chapter": "1.13", "disputed": 1, "Type": "journey"}}, {"type": "Feature", "geometry": {"type": "LineString", "coordinates": [[162.5, 4.25], [168.333333333333, 4.75], [177.0, -8.5]]}, "properties": {"name": "Golden Peninsula-Kattigara", "source": "Marinos/Alexandros", "chapter": "1.14", "disputed": 1, "Type": "journey"}}, {"type": "Feature", "geometry": {"type": "LineString", "coordinates": [[5.08333333333333, 37.1666666666667], [125.0, 37.0]]}, "properties": {"name": "Baetis-Indus", "source": "Marinos", "chapter": "1.14", "disputed": 0, "Type": "degrees"}}, {"type": "Feature", "geometry": {"type": "LineString", "coordinates": [[0.0, 16.0], [5.08333333333333, 37.1666666666667]]}, "properties": {"name": "Baetis-Blessed Isles", "source": "Marinos", "chapter": "1.14", "disputed": 0, "Type": "degrees"}}, {"type": "Feature", "geometry": {"type": "LineString", "coordinates": [[40.0, 36.3333333333333], [43.248723791844185, 31.669646784431677]]}, "properties": {"name": "Pachynos-Leptis Magna", "source": "Marinos", "chapter": "1.15", "disputed": 0, "Type": "north-sout"}}, {"type": "Feature", "geometry": {"type": "LineString", "coordinates": [[39.75803335676346, 31.669646784431677], [39.0, 36.3333333333333]]}, "properties": {"name": "Himera-Thena", "source": "Marinos", "chapter": "1.15", "disputed": 1, "Type": "north-sout"}}, {"type": "Feature", "geometry": {"type": "LineString", "coordinates": [[39.0, 36.3333333333333], [40.0, 36.3333333333333]]}, "properties": {"name": "Himera-Pachynos", "source": "Timosthenes", "chapter": "1.15", "disputed": 0, "Type": "distance"}}, {"type": "Feature", "geometry": {"type": "LineString", "coordinates": [[39.75803335676346, 31.669646784431677], [43.248723791844185, 31.669646784431677]]}, "properties": {"name": "Leptis Magna-Thena", "source": "Timosthenes", "chapter": "1.15", "disputed": 1, "Type": "distance"}}, {"type": "Feature", "geometry": {"type": "LineString", "coordinates": [[33.0, 44.6666666666667], [34.5, 44.9166666666667]]}, "properties": {"name": "Tergeste-Tiliaventum", "source": "Ptolemy", "chapter": "1.15", "disputed": 0, "Type": "distance"}}, {"type": "Feature", "geometry": {"type": "LineString", "coordinates": [[33.0, 44.6666666666667], [34.6666666666667, 44.0]]}, "properties": {"name": "Ravenna-Tiliaventum", "source": "Ptolemy", "chapter": "1.15", "disputed": 0, "Type": "distance"}}, {"type": "Feature", "geometry": {"type": "LineString", "coordinates": [[62.51531345756255, 35.98484606779757], [61.99497493790823, 31.082561841728737]]}, "properties": {"name": "Chelidoniai-Canopus", "source": "Marinos", "chapter": "1.15", "disputed": 1, "Type": "north-sout"}}, {"type": "Feature", "geometry": {"type": "LineString", "coordinates": [[62.51531345756255, 35.98484606779757], [65.1666666666667, 35.5]]}, "properties": {"name": "Chelidoniai-Akamas", "source": "Marinos", "chapter": "1.15", "disputed": 1, "Type": "distance"}}, {"type": "Feature", "geometry": {"type": "LineString", "coordinates": [[61.99497493790823, 31.082561841728737], [62.756945453703175, 31.081112957462462]]}, "properties": {"name": "Canopus-Sebennytos", "source": "Timosthenes", "chapter": "1.15", "disputed": 0, "Type": "distance"}}, {"type": "Feature", "geometry": {"type": "LineString", "coordinates": [[50.0, 41.5], [51.25, 41.25]]}, "properties": {"name": "Amphipolis-Athos", "source": "Marinos", "chapter": "1.15", "disputed": 1, "Type": "north-sout"}}, {"type": "Feature", "geometry": {"type": "LineString", "coordinates": [[50.0, 41.5], [50.25, 41.4166666666667], [50.25, 41.4166666666667]]}, "properties": {"name": "Amphipolis-Strymon", "source": "Marinos", "chapter": "1.15", "disputed": 1, "Type": "north-sout"}}, {"type": "Feature", "geometry": {"type": "LineString", "coordinates": [[56.998760793218544, 43.083333333333314], [71.7634104752256, 43.096743808558905]]}, "properties": {"name": "Trapezus-Byzantion", "source": "Marinos", "chapter": "1.15", "disputed": 0, "Type": "north-sout"}}, {"type": "Feature", "geometry": {"type": "LineString", "coordinates": [[70.73376372075577, 42.18007714189231], [71.7634104752256, 43.096743808558905]]}, "properties": {"name": "Trapezous-Satala", "source": "Marinos", "chapter": "1.15", "disputed": 0, "Type": "north-sout"}}, {"type": "Feature", "geometry": {"type": "LineString", "coordinates": [[70.73376372075577, 42.18007714189231], [56.998760793218544, 43.083333333333314]]}, "properties": {"name": "Byzantium-Satala", "source": "Marinos", "chapter": "1.15", "disputed": 1, "Type": "north-sout"}}, {"type": "Feature", "geometry": {"type": "LineString", "coordinates": [[66.27863090383804, -7.014537883312572], [62.80221887190967, 16.397133709752225]]}, "properties": {"name": "Nile Source-Meroe", "source": "Marinos", "chapter": "1.15", "disputed": 1, "Type": "north-sout"}}, {"type": "Feature", "geometry": {"type": "LineString", "coordinates": [[62.80221887190967, 16.397133709752225], [67.25002891302758, 16.499979560494864]]}, "properties": {"name": "Meroe-Ptolemais", "source": "Ptolemy", "chapter": "1.15", "disputed": 0, "Type": "east-west"}}, {"type": "Feature", "geometry": {"type": "LineString", "coordinates": [[67.25002891302758, 16.499979560494864], [68.26456679634015, 11.666646227161564]]}, "properties": {"name": "Ptolemais-Adulis", "source": "Ptolemy", "chapter": "1.15", "disputed": 0, "Type": "east-west"}}, {"type": "Feature", "geometry": {"type": "LineString", "coordinates": [[68.26456679634015, 11.666646227161564], [75.72095314640244, 11.029055327120009], [75.75002891302758, 10.999979560494864]]}, "properties": {"name": "Adulis-Dere", "source": "Ptolemy", "chapter": "1.15", "disputed": 0, "Type": "east-west"}}, {"type": "Feature", "geometry": {"type": "LineString", "coordinates": [[75.72095314640244, 11.029055327120009], [84.25002891302758, 5.9999795604948645]]}, "properties": {"name": "Dere-Aromata", "source": "Ptolemy", "chapter": "1.15", "disputed": 0, "Type": "east-west"}}, {"type": "Feature", "geometry": {"type": "LineString", "coordinates": [[119.5, 39.0], [125.0, 38.5], [136.0, 37.0], [140.0, 36.0], [145.0, 35.0]]}, "properties": {"name": "Sogdians-Sakai-India", "source": "Marinos", "chapter": "1.16", "disputed": 1, "Type": "boundary"}}, {"type": "Feature", "geometry": {"type": "LineString", "coordinates": [[90.00000232029038, 13.99996490108931], [93.00000232029038, 20.24996490108931]]}, "properties": {"name": "Syagros-Sachalites?", "source": "Ptolemy", "chapter": "1.17", "disputed": 0, "Type": "east-west"}}, {"type": "Feature", "geometry": {"type": "LineString", "coordinates": [[121.75, 13.5], [110.0, 14.75]]}, "properties": {"name": "Simylla-Komaria", "source": "Marinos", "chapter": "1.17", "disputed": 0, "Type": "east-west"}}, {"type": "Feature", "geometry": {"type": "LineString", "coordinates": [[143.0, 27.0], [177.25, 38.5833333333333]]}, "properties": {"name": "Seres-Palimbothra", "source": "Ptolemy", "chapter": "1.17", "disputed": 0, "Type": "report"}}, {"type": "Feature", "geometry": {"type": "LineString", "coordinates": [[180.0, 13.0], [177.0, -8.5]]}, "properties": {"name": "Sinai-Kattigara", "source": "Marinos", "chapter": "1.17", "disputed": 0, "Type": "east-west"}}, {"type": "Feature", "geometry": {"type": "LineString", "coordinates": [[180.0, 13.0], [177.25, 38.5833333333333]]}, "properties": {"name": "Sinai-Seres", "source": "Marinos", "chapter": "1.17", "disputed": 1, "Type": "east-west"}}, {"type": "Feature", "geometry": {"type": "LineString", "coordinates": [[177.25, 38.5833333333333], [177.0, -8.5], [177.0, -8.5]]}, "properties": {"name": "Seres-Kattigara", "source": "Marinos", "chapter": "1.17", "disputed": 1, "Type": "north-sout"}}, {"type": "Feature", "geometry": {"type": "LineString", "coordinates": [[73.75002891302758, -7.0000204395051355], [81.25288859238978, -15.019916908059159], [81.25288859238978, -15.019916908059159]]}, "properties": {"name": "Rhapta-Prason", "source": "Marinos", "chapter": "1.17", "disputed": 0, "Type": "east-west"}}, {"type": "Feature", "geometry": {"type": "LineString", "coordinates": [[73.75002891302758, -7.0000204395051355], [72.27863090383799, -7.009315273714212], [66.27863090383804, -7.014537883312572], [58.24546247309701, -6.058151533250288]]}, "properties": {"name": "Rhapta Coast-Nile sources", "source": "Marinos", "chapter": "1.18", "disputed": 0, "Type": "east-west"}}, {"type": "Feature", "geometry": {"type": "LineString", "coordinates": [[84.25002891302758, 5.9999795604948645], [83.25002891302758, 4.9999795604948645], [82.25002891302758, 4.2499795604948645], [82.25002891302758, 3.4999795604948645], [81.25002891302758, 3.4999795604948645], [79.25002891302758, 0.9999795604948645], [77.25002891302758, 0.4999795604948645], [74.75002891302758, -2.0439505135527725e-05], [75.25002891302758, -3.0000204395051355], [74.25002891302758, -4.0000204395051355], [73.75002891302758, -7.0000204395051355], [72.27863090383799, -7.009315273714212]]}, "properties": {"name": "Aromata-Rhapta", "source": "Marinos", "chapter": "1.17", "disputed": 0, "Type": "report"}}, {"type": "Feature", "geometry": {"type": "LineString", "coordinates": [[16.3333333333333, 40.6666666666667], [20.3333333333333, 42.3333333333333]]}, "properties": {"name": "Pyrenees-Tarraco", "source": "Ptolemy", "chapter": "1.15", "disputed": 0, "Type": "east-west"}}, {"type": "Feature", "geometry": {"type": "LineString", "coordinates": [[71.25, 36.25], [88.0, 37.75], [94.0, 37.0], [96.0, 37.8333333333333]]}, "properties": {"name": "Hierapolis-Hakatompylos", "source": "Marinos", "chapter": "1.12", "disputed": 0, "Type": "degrees"}}, {"type": "Feature", "geometry": {"type": "LineString", "coordinates": [[96.0, 37.8333333333333], [98.5, 40.0], [105.0, 35.0], [106.0, 40.6666666666667], [116.0, 41.0], [125.0, 43.0], [130.0, 39.0], [135.0, 43.0]]}, "properties": {"name": "Hekatompylos-Stone Tower", "source": "Marinos", "chapter": "1.12", "disputed": 1, "Type": "degrees"}}, {"type": "Feature", "geometry": {"type": "LineString", "coordinates": [[125.0, 37.0], [126.0, 12.5]]}, "properties": {"name": "Indus-Taprobane", "source": "Marinos", "chapter": "1.14", "disputed": 0, "Type": "east-west"}}, {"type": "Feature", "geometry": {"type": "LineString", "coordinates": [[125.666666666667, 13.3333333333333], [126.0, 12.5]]}, "properties": {"name": "Taprobane-Kory", "source": "Marinos", "chapter": "1.14", "disputed": 0, "Type": "north-sout"}}, {"type": "Feature", "geometry": {"type": "LineString", "coordinates": [[44.26172625465354, 21.480601991689326], [44.26465119845578, -1.5232529336786955]]}, "properties": {"name": "Garame-Agisymba", "source": "Marinos", "chapter": "1.8", "disputed": 1, "Type": "journey"}}, {"type": "Feature", "geometry": {"type": "LineString", "coordinates": [[62.77923329163915, 16.45627930835962], [58.24041815922059, -6.036036503612672]]}, "properties": {"name": "Meroe-Nile Source", "source": "Marinos", "chapter": "1.15", "disputed": 1, "Type": "north-sout"}}]}