{"type": "FeatureCollection", "features": [{"type": "Feature", "geometry": {"type": "Point", "coordinates": [0.0, 16.0]}, "properties": {"name": "Blessed Isles", "journey1": 1, "journey2": 1}}, {"type": "Feature", "geometry": {"type": "Point", "coordinates": [2.5, 38.25]}, "properties": {"name": "Sacred Cape", "journey1": 1, "journey2": null}}, {"type": "Feature", "geometry": {"type": "Point", "coordinates": [5.08333333333333, 37.1666666666667]}, "properties": {"name": "Western Baetis", "journey1": 1, "journey2": 1}}, {"type": "Feature", "geometry": {"type": "Point", "coordinates": [7.5, 36.25]}, "properties": {"name": "Pillars of Hercules", "journey1": 1, "journey2": null}}, {"type": "Feature", "geometry": {"type": "Point", "coordinates": [32.5, 36.0]}, "properties": {"name": "Caracles", "journey1": 1, "journey2": null}}, {"type": "Feature", "geometry": {"type": "Point", "coordinates": [37.0, 36.0]}, "properties": {"name": "Lilybaion", "journey1": 1, "journey2": null}}, {"type": "Feature", "geometry": {"type": "Point", "coordinates": [40.0, 36.3333333333333]}, "properties": {"name": "Pachyon", "journey1": 1, "journey2": null}}, {"type": "Feature", "geometry": {"type": "Point", "coordinates": [50.0, 34.3333333333333]}, "properties": {"name": "Tainaria", "journey1": 1, "journey2": null}}, {"type": "Feature", "geometry": {"type": "Point", "coordinates": [58.6666666666667, 36.0]}, "properties": {"name": "Rhodes", "journey1": 1, "journey2": null}}, {"type": "Feature", "geometry": {"type": "Point", "coordinates": [69.3333333333333, 36.9166666666667]}, "properties": {"name": "Issos", "journey1": 1, "journey2": null}}, {"type": "Feature", "geometry": {"type": "Point", "coordinates": [71.25, 36.25]}, "properties": {"name": "Hierapolis", "journey1": 1, "journey2": null}}, {"type": "Feature", "geometry": {"type": "Point", "coordinates": [88.0, 37.75]}, "properties": {"name": "Ekbatana", "journey1": 1, "journey2": null}}, {"type": "Feature", "geometry": {"type": "Point", "coordinates": [94.0, 37.0]}, "properties": {"name": "Caspian Gates", "journey1": 1, "journey2": null}}, {"type": "Feature", "geometry": {"type": "Point", "coordinates": [96.0, 37.8333333333333]}, "properties": {"name": "Hekatonpylos", "journey1": 1, "journey2": null}}, {"type": "Feature", "geometry": {"type": "Point", "coordinates": [98.5, 40.0]}, "properties": {"name": "Hyrkania", "journey1": 1, "journey2": null}}, {"type": "Feature", "geometry": {"type": "Point", "coordinates": [105.0, 35.0]}, "properties": {"name": "Areia", "journey1": 1, "journey2": null}}, {"type": "Feature", "geometry": {"type": "Point", "coordinates": [106.0, 40.6666666666667]}, "properties": {"name": "Antiochia Margiane", "journey1": 1, "journey2": null}}, {"type": "Feature", "geometry": {"type": "Point", "coordinates": [116.0, 41.0]}, "properties": {"name": "Baktra", "journey1": 1, "journey2": null}}, {"type": "Feature", "geometry": {"type": "Point", "coordinates": [125.0, 43.0]}, "properties": {"name": "Gorge Ascent", "journey1": 1, "journey2": null}}, {"type": "Feature", "geometry": {"type": "Point", "coordinates": [130.0, 39.0]}, "properties": {"name": "Gorge End", "journey1": 1, "journey2": null}}, {"type": "Feature", "geometry": {"type": "Point", "coordinates": [135.0, 43.0]}, "properties": {"name": "Stone Tower", "journey1": 1, "journey2": null}}, {"type": "Feature", "geometry": {"type": "Point", "coordinates": [177.25, 38.5833333333333]}, "properties": {"name": "Sera", "journey1": 1, "journey2": null}}, {"type": "Feature", "geometry": {"type": "Point", "coordinates": [125.0, 37.0]}, "properties": {"name": "Indus source", "journey1": null, "journey2": 1}}, {"type": "Feature", "geometry": {"type": "Point", "coordinates": [126.0, 12.5]}, "properties": {"name": "Northern cape", "journey1": null, "journey2": 1}}, {"type": "Feature", "geometry": {"type": "Point", "coordinates": [125.666666666667, 13.3333333333333]}, "properties": {"name": "Kory", "journey1": null, "journey2": 1}}, {"type": "Feature", "geometry": {"type": "Point", "coordinates": [128.0, 16.0]}, "properties": {"name": "Kurula", "journey1": null, "journey2": 1}}, {"type": "Feature", "geometry": {"type": "Point", "coordinates": [136.666666666667, 11.5]}, "properties": {"name": "Palura", "journey1": null, "journey2": 1}}, {"type": "Feature", "geometry": {"type": "Point", "coordinates": [154.333333333333, 11.3333333333333]}, "properties": {"name": "Sada", "journey1": null, "journey2": 1}}, {"type": "Feature", "geometry": {"type": "Point", "coordinates": [157.5, 9.0]}, "properties": {"name": "Tamala", "journey1": null, "journey2": 1}}, {"type": "Feature", "geometry": {"type": "Point", "coordinates": [162.5, 4.25]}, "properties": {"name": "Peninsula crossing", "journey1": null, "journey2": 1}}, {"type": "Feature", "geometry": {"type": "Point", "coordinates": [168.333333333333, 4.75]}, "properties": {"name": "Zabai", "journey1": null, "journey2": 1}}, {"type": "Feature", "geometry": {"type": "Point", "coordinates": [177.0, -8.5]}, "properties": {"name": "Kattigara", "journey1": null, "journey2": 1}}]}