{"type": "FeatureCollection", "features": [{"type": "Feature", "geometry": {"type": "LineString", "coordinates": [[15.0, 45.8333333333333], [17.0, 43.0], [19.0, 43.1666666666667], [20.3333333333333, 42.3333333333333]]}, "properties": {"name": "Pyrenees"}}, {"type": "Feature", "geometry": {"type": "LineString", "coordinates": [[27.5, 43.0], [28.0, 44.0], [28.5, 44.5], [29.0, 44.9166666666667], [29.5, 45.25], [31.5, 45.5], [33.5, 45.1666666666667], [34.0, 45.25], [35.0, 45.3333333333333], [36.0, 45.4166666666667], [36.5, 45.3333333333333], [41.5, 45.3333333333333]]}, "properties": {"name": "Alps"}}, {"type": "Feature", "geometry": {"type": "LineString", "coordinates": [[29.5, 45.25], [29.3333333333333, 46.0], [29.3333333333333, 46.0]]}, "properties": {"name": "Adula"}}, {"type": "Feature", "geometry": {"type": "LineString", "coordinates": [[36.5, 45.3333333333333], [37.5, 45.5], [37.5, 46.8333333333333], [37.5, 46.8333333333333]]}, "properties": {"name": "Cetius"}}, {"type": "Feature", "geometry": {"type": "LineString", "coordinates": [[42.5, 48.5], [43.5, 50.5], [43.5, 50.5]]}, "properties": {"name": "Sarmatian"}}, {"type": "Feature", "geometry": {"type": "LineString", "coordinates": [[50.0, 43.0], [55.0, 44.6666666666667]]}, "properties": {"name": "Haimos"}}, {"type": "Feature", "geometry": {"type": "LineString", "coordinates": [[46.0, 48.5], [46.0, 48.5], [46.0, 48.5]]}, "properties": {"name": "Karpathian"}}, {"type": "Feature", "geometry": {"type": "LineString", "coordinates": [[45.0, 39.3333333333333], [47.676896379411055, 38.73624196243522], [48.3333333333333, 38.5], [49.0, 38.5], [49.0, 38.5]]}, "properties": {"name": "Pindos"}}, {"type": "Feature", "geometry": {"type": "LineString", "coordinates": [[62.0, 37.8333333333333], [62.8333333333333, 36.5], [62.8333333333333, 36.5]]}, "properties": {"name": "Masikytos"}}, {"type": "Feature", "geometry": {"type": "LineString", "coordinates": [[65.0, 37.6666666666667], [71.0, 37.3333333333333], [71.0, 37.3333333333333]]}, "properties": {"name": "Tauros"}}, {"type": "Feature", "geometry": {"type": "LineString", "coordinates": [[72.0, 42.5], [73.75, 43.0], [74.0, 44.75], [74.0, 44.75]]}, "properties": {"name": "Moschika"}}, {"type": "Feature", "geometry": {"type": "LineString", "coordinates": [[70.5, 36.3333333333333], [71.0, 37.3333333333333], [72.3333333333333, 38.5]]}, "properties": {"name": "Amanos"}}, {"type": "Feature", "geometry": {"type": "LineString", "coordinates": [[67.0, 29.0], [71.0, 30.5], [80.0, 29.0], [80.0, 29.0]]}, "properties": {"name": "Nameless"}}, {"type": "Feature", "geometry": {"type": "LineString", "coordinates": [[77.25, 33.3333333333333], [80.0, 30.1666666666667], [80.0, 30.1666666666667]]}, "properties": {"name": "Nameless"}}, {"type": "Feature", "geometry": {"type": "LineString", "coordinates": [[76.5, 38.5], [81.5, 40.0], [81.5, 40.0]]}, "properties": {"name": "Niphates"}}, {"type": "Feature", "geometry": {"type": "LineString", "coordinates": [[81.5, 40.0], [80.0, 42.5], [80.0, 42.5]]}, "properties": {"name": "Caspian"}}, {"type": "Feature", "geometry": {"type": "LineString", "coordinates": [[85.0, 36.0], [95.0, 34.5], [102.5, 33.3333333333333], [102.5, 33.3333333333333]]}, "properties": {"name": "Parchoathras"}}, {"type": "Feature", "geometry": {"type": "LineString", "coordinates": [[102.5, 33.3333333333333], [102.0, 39.0], [102.0, 39.0]]}, "properties": {"name": "Masdoranon"}}, {"type": "Feature", "geometry": {"type": "LineString", "coordinates": [[101.0, 43.0], [102.0, 39.0], [102.0, 39.0]]}, "properties": {"name": "Nameless"}}, {"type": "Feature", "geometry": {"type": "LineString", "coordinates": [[93.0, 38.0], [95.0, 39.0], [102.0, 39.0], [102.0, 39.0]]}, "properties": {"name": "Koronos"}}, {"type": "Feature", "geometry": {"type": "LineString", "coordinates": [[102.0, 29.8333333333333], [105.0, 20.0], [105.0, 20.0]]}, "properties": {"name": "Persian"}}, {"type": "Feature", "geometry": {"type": "LineString", "coordinates": [[102.0, 39.0], [110.0, 39.0], [109.0, 39.0]]}, "properties": {"name": "Saripha"}}, {"type": "Feature", "geometry": {"type": "LineString", "coordinates": [[104.0, 44.0], [110.0, 39.0], [109.0, 39.0]]}, "properties": {"name": "Nameless"}}, {"type": "Feature", "geometry": {"type": "LineString", "coordinates": [[111.99867093508252, 36.0], [112.5, 39.0], [120.5, 38.99521313939394], [119.5, 39.0]]}, "properties": {"name": "Paropanisos"}}, {"type": "Feature", "geometry": {"type": "LineString", "coordinates": [[119.5, 39.0], [125.0, 38.5], [125.0, 38.5]]}, "properties": {"name": "Caucasian"}}, {"type": "Feature", "geometry": {"type": "LineString", "coordinates": [[125.0, 38.5], [136.0, 37.0], [140.0, 36.0], [145.0, 35.0], [145.0, 35.0]]}, "properties": {"name": "Imaos"}}, {"type": "Feature", "geometry": {"type": "LineString", "coordinates": [[145.0, 35.0], [140.0, 43.0], [140.0, 63.0], [140.0, 63.0]]}, "properties": {"name": "Northern Imaos"}}, {"type": "Feature", "geometry": {"type": "LineString", "coordinates": [[130.0, 49.0], [140.0, 43.0], [140.0, 43.0]]}, "properties": {"name": "Askatankas"}}, {"type": "Feature", "geometry": {"type": "LineString", "coordinates": [[104.0, 44.0], [110.0, 49.0], [110.0, 49.0]]}, "properties": {"name": "Oxeia"}}, {"type": "Feature", "geometry": {"type": "LineString", "coordinates": [[102.0, 29.8333333333333], [106.0, 32.0], [112.0, 34.0], [112.0, 34.0]]}, "properties": {"name": "Bagoon"}}, {"type": "Feature", "geometry": {"type": "LineString", "coordinates": [[120.0, 32.6666666666667], [112.0, 34.0], [112.0, 34.0]]}, "properties": {"name": "Parsyeta"}}, {"type": "Feature", "geometry": {"type": "LineString", "coordinates": [[120.0, 32.6666666666667], [120.5, 38.99521313939394], [119.5, 39.0]]}, "properties": {"name": "Caucasian (South)"}}, {"type": "Feature", "geometry": {"type": "LineString", "coordinates": [[102.0, 29.8333333333333], [112.5, 28.0], [120.0, 28.0], [119.0, 28.0]]}, "properties": {"name": "Baitia"}}, {"type": "Feature", "geometry": {"type": "LineString", "coordinates": [[120.5, 38.99521313939394], [122.58768480763423, 38.71930138112416], [125.0, 38.5], [125.0, 38.5]]}, "properties": {"name": "Great Atlas"}}, {"type": "Feature", "geometry": {"type": "LineString", "coordinates": [[9.258325378203981, 26.5], [11.450921756018767, 26.329390657503044], [11.450921756018767, 26.329390657503044]]}, "properties": {"name": "Caucasian"}}, {"type": "Feature", "geometry": {"type": "LineString", "coordinates": [[75.0, 44.6666666666667], [76.0, 47.0], [76.0, 47.5], [76.0, 47.5]]}, "properties": {"name": "Caucasian"}}]}