{"type": "FeatureCollection", "features": [{"type": "Feature", "geometry": {"type": "LineString", "coordinates": [[4.08333333333333, 37.6666666666667], [6.33333333333333, 39.0], [9.0, 39.0], [14.0, 40.0], [14.0, 40.0]]}, "properties": {"name": "Anas"}}, {"type": "Feature", "geometry": {"type": "LineString", "coordinates": [[5.33333333333333, 41.8333333333333], [8.83333333333333, 41.8333333333333], [12.6666666666667, 41.6666666666667], [12.6666666666667, 41.6666666666667]]}, "properties": {"name": "Durius"}}, {"type": "Feature", "geometry": {"type": "LineString", "coordinates": [[17.6666666666667, 48.5], [20.0, 48.5], [20.0, 44.5], [20.0, 44.5]]}, "properties": {"name": "Liger"}}, {"type": "Feature", "geometry": {"type": "LineString", "coordinates": [[20.0, 51.1666666666667], [22.0, 49.3333333333333], [24.0, 47.3333333333333], [24.0, 47.3333333333333]]}, "properties": {"name": "Sequana"}}, {"type": "Feature", "geometry": {"type": "LineString", "coordinates": [[29.3333333333333, 46.0], [28.0, 50.0], [27.3333333333333, 54.0], [27.3333333333333, 54.0]]}, "properties": {"name": "Rhenus"}}, {"type": "Feature", "geometry": {"type": "LineString", "coordinates": [[29.99950070150935, 46.8237767423675], [32.0, 47.25], [34.0, 47.3333333333333], [36.0, 46.6666666666667], [37.5, 46.8333333333333], [39.3333333333333, 47.3333333333333], [41.0, 47.6666666666667], [42.0, 47.0], [42.5, 48.0], [44.3333333333333, 45.3333333333333], [45.0, 45.3333333333333], [45.5, 45.0], [45.0, 44.5], [46.0, 44.25], [46.0, 44.25], [47.3333333333333, 44.75], [49.0, 44.5], [49.5, 43.75], [50.25, 44.0], [51.0, 44.0], [54.3333333333333, 45.75], [53.6666666666667, 46.6666666666667], [54.8333333333333, 46.5], [55.3333333333333, 46.5], [56.0, 46.0833333333333], [56.0, 46.0833333333333]]}, "properties": {"name": "Danuvius"}}, {"type": "Feature", "geometry": {"type": "LineString", "coordinates": [[54.8333333333333, 46.5], [55.0, 46.75], [55.5, 47.0], [55.6666666666667, 47.25], [56.25, 47.0], [56.25, 47.0]]}, "properties": {"name": "Danuvius"}}, {"type": "Feature", "geometry": {"type": "LineString", "coordinates": [[50.0, 43.0], [49.5, 43.75], [49.5, 43.75]]}, "properties": {"name": "Cebrus"}}, {"type": "Feature", "geometry": {"type": "LineString", "coordinates": [[46.0, 48.5], [46.0, 44.25], [46.0, 44.25]]}, "properties": {"name": "Tibiskos"}}, {"type": "Feature", "geometry": {"type": "LineString", "coordinates": [[53.0, 48.5], [53.6666666666667, 46.6666666666667], [53.6666666666667, 46.6666666666667]]}, "properties": {"name": "Hierasos"}}, {"type": "Feature", "geometry": {"type": "LineString", "coordinates": [[34.0, 45.25], [34.0, 47.3333333333333], [34.0, 47.3333333333333]]}, "properties": {"name": "Aenus"}}, {"type": "Feature", "geometry": {"type": "LineString", "coordinates": [[12.419688459438415, 34.83618575766529], [12.717377306586195, 29.477269053293742], [12.717377306586195, 29.477269053293742]]}, "properties": {"name": "Malua"}}, {"type": "Feature", "geometry": {"type": "LineString", "coordinates": [[27.49681587122647, 31.7435373258728], [27.24681587122647, 25.9935373258728], [27.24681587122647, 25.9935373258728]]}, "properties": {"name": "Ampsaga"}}, {"type": "Feature", "geometry": {"type": "LineString", "coordinates": [[72.0, 42.5], [72.5, 40.5], [72.0, 39.3333333333333], [72.3333333333333, 38.5], [72.6666666666667, 37.3333333333333], [74.0, 35.0833333333333], [75.0, 35.0], [76.75, 33.8333333333333], [77.25, 33.3333333333333], [79.25, 35.6666666666667], [80.0, 35.6666666666667], [81.0, 34.3333333333333], [81.0, 34.3333333333333]]}, "properties": {"name": "Euphrates"}}, {"type": "Feature", "geometry": {"type": "LineString", "coordinates": [[76.5, 38.5], [80.0, 36.3333333333333], [80.3333333333333, 36.3333333333333], [80.5, 36.0833333333333], [81.0, 34.3333333333333], [81.5, 31.0], [81.5, 31.0]]}, "properties": {"name": "Tigris"}}, {"type": "Feature", "geometry": {"type": "LineString", "coordinates": [[75.0, 44.6666666666667], [77.0, 44.6666666666667], [80.6666666666667, 44.5], [80.6666666666667, 44.5]]}, "properties": {"name": "Kyros"}}, {"type": "Feature", "geometry": {"type": "LineString", "coordinates": [[95.0, 35.25], [95.0, 29.25], [95.0, 29.25]]}, "properties": {"name": "Bagradas"}}, {"type": "Feature", "geometry": {"type": "LineString", "coordinates": [[64.00043253120955, 62.997904470715326], [64.00043253120955, 57.997904470715326], [72.5253902500576, 55.987337896294214], [67.00043253120955, 54.497904470715326], [67.00043253120955, 54.497904470715326]]}, "properties": {"name": "Tanais"}}, {"type": "Feature", "geometry": {"type": "LineString", "coordinates": [[87.49867595918093, 48.8333333333333], [83.99867595918093, 54.0], [78.99867595918093, 58.5], [89.99867595918093, 61.0]]}, "properties": {"name": "Rha"}}, {"type": "Feature", "geometry": {"type": "LineString", "coordinates": [[70.01058587113792, 60.98201065220251], [79.01058587113792, 58.48201065220251], [79.01058587113792, 58.48201065220251]]}, "properties": {"name": "Rha"}}, {"type": "Feature", "geometry": {"type": "LineString", "coordinates": [[119.5, 39.0], [116.5, 44.0], [115.0, 44.0], [112.5, 44.0], [109.0, 44.3333333333333], [103.0, 44.0], [102.666666666667, 43.5], [100.0, 43.0], [100.0, 43.0]]}, "properties": {"name": "Oxus"}}, {"type": "Feature", "geometry": {"type": "LineString", "coordinates": [[97.0, 48.0], [110.0, 49.0], [120.0, 48.5], [125.0, 43.0], [125.0, 43.0]]}, "properties": {"name": "Iaxartes"}}, {"type": "Feature", "geometry": {"type": "LineString", "coordinates": [[110.333333333333, 19.8333333333333], [111.0, 21.5], [113.666666666667, 23.25], [117.0, 25.1666666666667], [122.5, 27.5], [122.0, 29.5], [124.0, 30.0], [124.5, 31.0], [125.0, 37.0], [125.0, 37.0]]}, "properties": {"name": "Indus"}}, {"type": "Feature", "geometry": {"type": "LineString", "coordinates": [[113.333333333333, 20.25], [113.333333333333, 21.6666666666667], [113.5, 22.3333333333333], [113.666666666667, 23.25], [113.666666666667, 23.25]]}, "properties": {"name": "Indus"}}, {"type": "Feature", "geometry": {"type": "LineString", "coordinates": [[136.0, 37.0], [135.0, 34.0], [136.5, 32.5], [136.333333333333, 31.5], [140.25, 30.3333333333333], [142.0, 28.0], [144.0, 27.0], [146.0, 22.0], [146.5, 21.0], [148.5, 18.25], [148.5, 18.25]]}, "properties": {"name": "Ganges"}}, {"type": "Feature", "geometry": {"type": "LineString", "coordinates": [[144.5, 18.25], [145.0, 20.0], [146.0, 22.0], [146.0, 22.0]]}, "properties": {"name": "Ganges"}}, {"type": "Feature", "geometry": {"type": "LineString", "coordinates": [[26.5, 53.3333333333333], [27.485195129161852, 53.06709395924227], [27.49089660084191, 53.04029646153845]]}, "properties": {"name": "Rhine"}}, {"type": "Feature", "geometry": {"type": "LineString", "coordinates": [[120.5, 39.0], [117.5, 44.0], [115.0, 44.0], [113.5, 44.0], [110.0, 44.3333333333333], [110.0, 44.3333333333333], [104.0, 44.0], [103.666666666667, 43.5], [100.97834089454331, 43.0], [101.0, 43.0]]}, "properties": {"name": "Vistula"}}, {"type": "Feature", "geometry": {"type": "LineString", "coordinates": [[97.0, 48.0], [110.0, 49.0], [120.0, 48.5], [120.97850831634759, 47.52846309071875], [123.03328643830189, 46.97740034388247], [125.0, 43.0], [125.0, 43.0]]}, "properties": {"name": "babylon"}}, {"type": "Feature", "geometry": {"type": "LineString", "coordinates": [[45.015347354826325, 56.01022138901324], [44.00872425432087, 52.504396107942505]]}, "properties": {"name": "babylon"}}, {"type": "Feature", "geometry": {"type": "LineString", "coordinates": [[79.50153814331223, 32.497760026667294], [80.00170768832206, 34.33082819960221], [80.00170768832206, 35.663726827527306]]}, "properties": {"name": "phasis"}}, {"type": "Feature", "geometry": {"type": "LineString", "coordinates": [[80.0043681646253, 34.3308281996022], [79.25411384711057, 35.66638730383055]]}, "properties": {"name": "borysthenes"}}, {"type": "Feature", "geometry": {"type": "LineString", "coordinates": [[72.49999755488936, 44.99996287595813], [74.99146634762265, 45.00176504480847]]}, "properties": {"name": "borysthenes"}}, {"type": "Feature", "geometry": {"type": "LineString", "coordinates": [[57.5, 48.5], [57.0, 49.0], [52.00149613709563, 53.0023483672279]]}, "properties": {"name": "nile delta"}}, {"type": "Feature", "geometry": {"type": "LineString", "coordinates": [[56.50225163123323, 50.33414804171311], [57.0, 49.0]]}, "properties": {"name": "Nilotic canal"}}, {"type": "Feature", "geometry": {"type": "LineString", "coordinates": [[75.0, 44.6666666666667], [77.0, 44.6666666666667], [78.5, 44.5], [79.6666666666667, 44.5], [79.6666666666667, 44.5]]}, "properties": {"name": "nile"}}, {"type": "Feature", "geometry": {"type": "LineString", "coordinates": [[62.085074009634965, 31.086620771804128], [62.751740676301665, 30.253287438470828], [63.251740676301665, 30.003287438470828], [63.501740676301665, 30.086620771804128], [63.918407342968365, 30.336620771804128], [64.50174067630167, 31.253287438470828]]}, "properties": {"name": "nile east source"}}, {"type": "Feature", "geometry": {"type": "LineString", "coordinates": [[63.24845323783084, 30.003287438470828], [64.74845323783083, 29.836620771804128]]}, "properties": {"name": "astapus"}}, {"type": "Feature", "geometry": {"type": "LineString", "coordinates": [[63.24989558126221, 29.998753799938278], [63.24989558126221, 29.748753799938278], [63.24989558126221, 28.748753799938278], [63.08322891459551, 23.748753799938278], [61.74989558126221, 22.498753799938278], [63.24989558126221, 21.665420466604978], [62.42463349858427, 20.230648298830435], [60.96364486654237, 19.66510431223357], [61.128595195966454, 18.28659084490371], [61.83552517921254, 18.310155177678578], [63.28473164486701, 19.81827247527022], [63.7913647995267, 19.511936149196917], [62.754534157432445, 16.990552542285894], [62.24989558126221, 11.998753799938278], [63.24989558126221, 1.998753799938278], [58.24989558126221, -6.001246200061722]]}, "properties": {"name": "meroe"}}]}